formattedAddress,googleMapsUri,airport,distanceFromFlightpath,averageAltitude,distanceFromAirport,path_id,latitude,longitude,displayName,editorialSummary
"Near, Mata Mandir Rd, Block D, New Friends Colony, New Delhi, Delhi 110025, India",https://maps.google.com/?cid=3710504451510979036,DEL,0.009616511191760005,2034.4901960784314,10.04627154302814,DEL2,28.566598,77.268658,MCD Park,
"H2HR+RVV, Dwarka, Delhi, 110075, India",https://maps.google.com/?cid=15308491188708538691,DEL,0.15530811102173248,1629.0833333333333,3.807400858601923,DEL3,28.5796235,77.0421628,Park,
"H3G3+6P7, Dwarka, New Delhi, Delhi, 110075, India",https://maps.google.com/?cid=13028907513514322900,DEL,0.07678573800915452,1347.25,3.026314751490418,DEL3,28.5755421,77.05430510000001,Central Park Dwarka,
"2nd Floor, Som Dutt Chamber II, 221-222/9, Bhikaji Cama Place, Rama Krishna Puram, New Delhi, Delhi 110066, India",https://maps.google.com/?cid=3918729835874431167,DEL,0.05454408076127133,1153.878048780488,5.136419864989282,DEL1,28.5674408,77.1877414,Jungle Camps India,
"G66Q+27W, Block B, Tigri Extension, Sangam Vihar, New Delhi, Delhi 110044, India",https://maps.google.com/?cid=6543239806430654493,DEL,0.006100150624145203,1998.0,9.079846358899177,DEL0,28.510100899999998,77.23821509999999,Hari Park,
"Masjid Moth AIIMS STAFF QTRS, H678+HVW, South Extension, Block K, New Delhi, Delhi 110049, India",https://maps.google.com/?cid=16553951134127161157,DEL,0.22167877848214862,1671.5416666666667,6.926793991087678,DEL1,28.563979999999997,77.2172142,MASJID MOTH AIIMS STAFF QUARTERS PARK,
"H2HV+624, Dwarka, New Delhi, Delhi, 110075, India",https://maps.google.com/?cid=12857388769310514663,DEL,0.065387242755743,1562.5833333333333,3.75712099098909,DEL3,28.5780077,77.0425889,District Park,
"857, Gali Number 22, Jogabai Extension, Zakir Nagar, Okhla, New Delhi, Delhi 110025, India",https://maps.google.com/?cid=16519992191740572698,DEL,0.1972470779024346,2116.8888888888887,10.709339608132824,DEL2,28.5694241,77.2795558,Abdul Hameed AH,
"G5FW+4QF, Kutub Golf Course, Lado Sarai, New Delhi, Delhi 110017, India",https://maps.google.com/?cid=10956627701959129434,DEL,0.2217495503876553,1660.0666666666666,6.4454765518430746,DEL0,28.522805299999998,77.1969282,DDA Park,
"G67G+959, Block F, Khanpur Colony, Khanpur, New Delhi, Delhi 110062, India",https://maps.google.com/?cid=7334918514029310476,DEL,0.0285315146274447,1900.7045454545455,8.284509912651716,DEL0,28.5134202,77.2254884,"Model Park,Khanpur Colony",
"HXRX+5WH, Deenpur, Shiv Puri II, Najafgarh, Delhi, 110043, India",https://maps.google.com/?cid=9940156605665343778,DEL,0.21141422057779982,2693.6470588235293,6.478484656813366,DEL3,28.5904271,76.999867,Village Deendarpur Park,
"64, Block B, Tigri Extension, Sangam Vihar, New Delhi, Delhi 110080, India",https://maps.google.com/?cid=6184338916341346199,DEL,0.05957000287895106,1940.7837837837837,9.205247889491222,DEL0,28.5088536,77.2398257,My Green Terrace,
"H57W+V8F, B5 Block, B4 Block, Safdarjung Enclave, New Delhi, Delhi 110029, India",https://maps.google.com/?cid=12844704920716568201,DEL,0.21030907063963103,1285.225806451613,5.627008026721431,DEL1,28.564691099999997,77.19580859999999,B4 SJE Park,
"Rajan Distt Park, 110077, Block D, Sector 8 Dwarka, Dwarka, New Delhi, Delhi, 110077, India",https://maps.google.com/?cid=11749306591848840395,DEL,0.13422041840592636,1135.5714285714287,2.0116917668046073,DEL3,28.5701894,77.0702197,Rajan Distt Park,
"H5C8+74F, Qutab Garh, Sector 8, Rama Krishna Puram, New Delhi, Delhi 110022, India",https://maps.google.com/?cid=3078707457573679297,DEL,0.11287187750620728,742.4181818181818,3.7860034525005903,DEL1,28.570693,77.16531239999999,Lym Pym park,
"Nehru Nagar, Lajpat Nagar, New Delhi, Delhi 110065, India",https://maps.google.com/?cid=5668270491298485141,DEL,0.2690988002782616,1935.5434782608695,9.17786195144051,DEL2,28.571222199999998,77.2542551,Block 3 Park,
"4161, Pocket 9, Sector B, Vasant Kunj, New Delhi, Delhi 110070, India",https://maps.google.com/?cid=15098052137604278325,DEL,0.11567560487651554,1073.2857142857142,4.460846573237436,DEL0,28.528408799999998,77.1624465,4161,
"Block C, Defence Colony, New Delhi, Delhi 110049, India",https://maps.google.com/?cid=14417781044867274879,DEL,0.05816993021923888,1831.8823529411766,7.700784180014239,DEL1,28.568234999999998,77.229992,Swapna Vatika,
"C-95, Canal Colony, Okhla, New Delhi, Delhi 110025, India",https://maps.google.com/?cid=10482943774868571615,DEL,0.15493853549327022,2127.7619047619046,11.56123682949311,DEL2,28.563275500000003,77.293585,Central Park,
"G5CX+GCW, Mehrauli - Badarpur Rd, Butterfly Park, Qila Rai Pithora, Sainik Farm, New Delhi, Delhi 110017, India",https://maps.google.com/?cid=13373373420846008085,DEL,0.1571513800861202,1703.5454545454545,6.580842648522075,DEL0,28.521362999999997,77.198579,Spice DDA Park,
"G5CQ+VH6, Seth Sarai, Mehrauli, New Delhi, Delhi 110016, India",https://maps.google.com/?cid=6554000940223316486,DEL,0.08047671033180152,1555.0,6.041268037071309,DEL0,28.522150399999997,77.1888836,Rose Garden,
"470, Shaheed Smarak Marg Rd, Arun Vihar, Sector 37, Noida, Uttar Pradesh 201303, India",https://maps.google.com/?cid=17187499664741026236,DEL,0.22219168343446713,3043.684210526316,14.53709811824335,DEL2,28.568327999999998,77.34265599999999,S.K. Sharma Park,
"Vasant Marg, Sector 7, Rama Krishna Puram, New Delhi, Delhi 110022, India",https://maps.google.com/?cid=15835481938781210490,DEL,0.12230271737485497,767.6603773584906,3.86559739093459,DEL1,28.5667838,77.166805,Vasant Marg,
"G5GH+7CP, Mehrauli Village, Mehrauli, New Delhi, Delhi 110030, India",https://maps.google.com/?cid=6544119015600749029,DEL,0.20461753365067892,1372.6744186046512,5.381696392877606,DEL0,28.5263432,77.1790801,वन्य जीव संरक्षण उद्यान,
"5029, 5060, Pocket 7, Sector B, Vasant Kunj, New Delhi, Delhi 110070, India",https://maps.google.com/?cid=8814223145956402556,DEL,0.06379600678654505,1004.8717948717949,4.301249960486116,DEL0,28.526470900000003,77.157378,Childrens park,
"Mohammadpur, Rama Krishna Puram, New Delhi, Delhi 110066, India",https://maps.google.com/?cid=4107643474877490280,DEL,0.18456206115249044,1123.2894736842106,4.9883503480075255,DEL1,28.565351999999997,77.1852969,MAHARAJA DAKSH PRAJAPATI UDYAN,
"7, Sri Aurobindo Marg, Ansari Nagar East, Block C 1, Ansari Nagar East, New Delhi, Delhi 110029, India",https://maps.google.com/?cid=1732889110274743907,DEL,0.12265750058350591,1489.2702702702702,6.376462325233225,DEL1,28.569887899999998,77.2081135,AIIMS Roundabout,
"Centumu Rd, Block M, Lajpat Nagar III, Lajpat Nagar, New Delhi, Delhi 110024, India",https://maps.google.com/?cid=10171468549247602067,DEL,0.2562948770492925,1830.9166666666667,8.06913720951035,DEL1,28.5677454,77.2360697,Centumu Road,
"H58W+J97, Block A 1, Nauroji Nagar, Safdarjung Enclave, New Delhi, Delhi 110029, India",https://maps.google.com/?cid=14718526288773904668,DEL,0.09876438039002415,1285.4705882352941,5.63261024934252,DEL1,28.5665269,77.1959246,A1 SJE Park,
"Sector 7, Rama Krishna Puram, New Delhi, Delhi 110022, India",https://maps.google.com/?cid=7616492087464886802,DEL,0.05312710661356497,767.6603773584906,3.907054920411438,DEL1,28.5696627,77.1673891,Rock Garden,
"Wadhwa Farm, 15, Ashoka Ave, Sainik Farms Colony, Sainik Farm, New Delhi, Delhi 110062, India",https://maps.google.com/?cid=1635166715991764523,DEL,0.11186921206378668,1918.0701754385964,8.146910639257596,DEL0,28.5118026,77.2220079,Wadhwa's - Eden Villa,
"H5C5+PX8, West End Colony, Vasant Enclave, Vasant Vihar, New Delhi, Delhi 110057, India",https://maps.google.com/?cid=13956348421604578991,DEL,0.17155912541506843,660.3720930232558,3.4696386121429668,DEL1,28.571778,77.15996539999999,Bhakti Park,
"H79R+3P7, Sailing Club Rd, Batla House, Canal Colony, Okhla, New Delhi, Delhi 110025, India",https://maps.google.com/?cid=12465876453006844537,DEL,0.10879799404662391,2165.764705882353,11.451075170678772,DEL2,28.5676663,77.2918043,South Delhi Bio Diversity Park,
"290m64, Mehrauli - Badarpur Rd, Butterfly Park, Nai Basti, Lado Sarai, New Delhi, Delhi 110030, India",https://maps.google.com/?cid=17279811106407881582,DEL,0.13767060311966228,1701.8666666666666,6.576194781554445,DEL0,28.5210896,77.1983236,butterfly park saket,
"H69P+69C, Block M, Lajpat Nagar III, Lajpat Nagar, New Delhi, Delhi 110024, India",https://maps.google.com/?cid=17391597931225242764,DEL,0.24905933635301708,1830.9166666666667,8.058230142685343,DEL1,28.568062700000002,77.23588579999999,Children Park,
"Pocket 8, Sector B, Vasant Kunj, New Delhi, Delhi 110067, India",https://maps.google.com/?cid=16689623960129614283,DEL,0.010295487099318025,956.8103448275862,4.177654310507912,DEL0,28.5276917,77.1558861,DDA Park Masoodpur,
"109/26, E St, Mohammadpur, Rama Krishna Puram, New Delhi, Delhi 110022, India",https://maps.google.com/?cid=14779359356317807491,DEL,0.1727298114060572,1115.9767441860465,4.970996255885654,DEL1,28.565553299999998,77.18501429999999,SDMC Park,
"85, Mohammadpur Village, Brahma Kumari Mandir, Bhikaji Cama Place, Rama Krishna Puram, New Delhi, Delhi 110066, India",https://maps.google.com/?cid=16103966719410740771,DEL,0.05471469514800687,1151.5,5.111893222628911,DEL1,28.567446999999998,77.1873371,Ambedkar Park,
"H5C8+PGC, Qutab Garh, Sector 8, Rama Krishna Puram, New Delhi, Delhi 110022, India",https://maps.google.com/?cid=5880477690016661354,DEL,0.18195624579196712,754.6304347826087,3.8498520856226377,DEL1,28.571811000000004,77.166259,Ayyappa Park- Rama Krishna Puram,
"G686+9C7, Mehrauli - Badarpur Rd, City Forest Hauzrani, Sainik Farm, New Delhi, Delhi 110044, India",https://maps.google.com/?cid=8596339287110245711,DEL,0.006808117201149726,1864.8695652173913,7.425924301366744,DEL0,28.5159242,77.2110547,City Forest,"Sprawling urban forest with extensive jogging trails, a flower nursery & free-roaming peacocks."
"A1/90, B3 Block, Nauroji Nagar, Safdarjung Enclave, New Delhi, Delhi 110029, India",https://maps.google.com/?cid=13389809359146156630,DEL,0.041245951585606566,1354.7380952380952,5.838556201602558,DEL1,28.5673966,77.1993134,A1 Block Safdarjung Enclave Park,
"Basant Gaon, Jamdigni park, Delhi, New Delhi, Delhi 110057, India",https://maps.google.com/?cid=17330494749865784149,DEL,0.16353918412448135,644.2037037037037,3.4188424222796936,DEL1,28.5716641,77.1591373,Maharshi Jamadagni Park,
"H67X+6X6, Block A, Dayanand Colony, Lajpat Nagar, New Delhi, Delhi 110024, India",https://maps.google.com/?cid=13403857409164328968,DEL,0.23414361376662746,1957.2916666666667,8.911573592272786,DEL2,28.563029099999998,77.2499035,DNC Park,
"Near Mindir,Khanpur, Mehrauli - Badarpur Rd, Tigri, Sangam Vihar, New Delhi, Delhi 110062, India",https://maps.google.com/?cid=11163971871524168788,DEL,0.17369937616590214,1967.4285714285713,9.310589131827951,DEL0,28.512014999999998,77.243397,Ramdev Park,
"B-10, Bhagwan Mahaveer Rd, Pocket 10, Sector B, Vasant Kunj, New Delhi, Delhi 110070, India",https://maps.google.com/?cid=18443105762129867157,DEL,0.20221504209377517,891.4230769230769,3.8860721240352625,DEL0,28.5317866,77.153482,Sunrise Park,
"G5FH+2H2, Mehrauli Village, Mehrauli, New Delhi, Delhi 110030, India",https://maps.google.com/?cid=993639942423935403,DEL,0.02479976620843861,1373.8305084745762,5.513025385343324,DEL0,28.522519,77.1788904,Dairy wala park,
"A Block, Sector 39, Noida, Uttar Pradesh 201301, India",https://maps.google.com/?cid=16405901215952456510,DEL,0.20180293344596,2979.1290322580644,14.935321759834087,DEL2,28.5678378,77.3492222,Block A Park,
"Ward No.-16, Flat Mo, 1461, Ward No 6, Harijan Basti, Arun Vihar, Sector 37, Noida, Uttar Pradesh 201303, India",https://maps.google.com/?cid=14332584028131067318,DEL,0.10294634288282656,3046.942857142857,14.615336767687332,DEL2,28.5663321,77.343952,Children park,
"Golf Course Rd, Sector 24 Dwarka, Dwarka, Delhi, 110075, India",https://maps.google.com/?cid=2769999552219968489,DEL,0.02263713774101133,1550.3589743589744,3.8464950309821235,DEL3,28.5776455,77.0409971,Golf Course Road,
"H6CP+5WF, Feroze Gandhi Rd, Block A, Lajpat Nagar II, Lajpat Nagar, New Delhi, Delhi 110024, India",https://maps.google.com/?cid=4893981213980485573,DEL,0.19849928668530628,1851.3055555555557,8.148398605921093,DEL2,28.570445000000003,77.23731,Park,
"Gurudwara Rd, Block E, Saket, New Delhi, Delhi 110017, India",https://maps.google.com/?cid=16223217879474467174,DEL,0.16907199241500886,1838.6666666666667,7.1608659572524545,DEL0,28.5194896,77.20824739999999,Gurudwara Road,
"20, Sector 20 Dwarka, Dwarka, New Delhi, Delhi, 110075, India",https://maps.google.com/?cid=15627013966844452773,DEL,0.10899593828624614,1187.375,2.7231988727665053,DEL3,28.5714123,77.05857689999999,Bharat Vandana Park,
"H69W+8GG, Veer Savarkar Marg, Block L, Lajpat Nagar II, Lajpat Nagar, New Delhi, Delhi 110024, India",https://maps.google.com/?cid=18181728210372596385,DEL,0.08178677909014545,1924.9512195121952,8.691673868208111,DEL2,28.5683196,77.2463216,Lajpat Nagar Park,
"Block G, Lajpat Nagar III, Lajpat Nagar, New Delhi, Delhi 110024, India",https://maps.google.com/?cid=566241599617827545,DEL,0.009876361297202409,1862.0754716981132,8.245614212854237,DEL2,28.5669737,77.2389839,Trees Park,
"75, RWA Marg, Arun Vihar, Sector 37, Noida, Uttar Pradesh 201203, India",https://maps.google.com/?cid=15889825294537983563,DEL,0.0006860338075322863,2866.948717948718,14.320918673752326,DEL2,28.564737599999997,77.33909,VVIP OF JATAV SECTOR 37 NOIDA,
"2, Mandir Marg, Saidulajab, Saiyad ul Ajaib, Sainik Farm, New Delhi, Delhi 110030, India",https://maps.google.com/?cid=5101059275144642057,DEL,0.0018918713166359918,1793.450980392157,6.9966639318738695,DEL0,28.5175779,77.2040311,RZ13 DDA Park Saidulajab Saket,
"Cross Rd 2, Block C, Vasant Vihar, New Delhi, Delhi 110057, India",https://maps.google.com/?cid=14592697387745561885,DEL,0.015587567985080963,690.18,3.540413477708384,DEL1,28.5691761,77.16136809999999,Cross Road 2,
"Sector 19, A,, Sector 19B, Nanda Enclave, Block C, Dwarka, Delhi, 110075, India",https://maps.google.com/?cid=14377022373121318030,DEL,0.008262681503616502,1461.5681818181818,3.309179289840692,DEL3,28.575471200000003,77.0495345,DDA PARK,
"IUAC Internal (Inter University Accelerator Centre), Jawaharlal Nehru University, New Delhi, Delhi 110067, India",https://maps.google.com/?cid=17705937565797153688,DEL,0.15574603290195987,1153.1555555555556,4.694998408762797,DEL0,28.5281213,77.1669398,IUAC Internal (Inter University Accelerator Centre),
"J4, Block J, Lajpat Nagar III, Lajpat Nagar, New Delhi, Delhi 110024, India",https://maps.google.com/?cid=14591222352924083144,DEL,0.07007666470487169,1847.75,8.328362139572286,DEL2,28.5659513,77.2403465,Zodiac Park,
"H67H+H3G, Andrews Ganj, New Delhi, Delhi 110049, India",https://maps.google.com/?cid=14776386017913696537,DEL,0.20743810737069707,1832.409090909091,7.56227369258679,DEL1,28.563925800000003,77.2276878,Ambedkar park,
"Khizrabad Bhagol, Friends Colony East, New Friends Colony, New Delhi, Delhi 110065, India",https://maps.google.com/?cid=15882999461460516335,DEL,0.17639781903690133,2125.8,10.541322965253515,DEL2,28.5691482,77.276792,Ashoka Park,
"Sector 19 Dwarka, Dwarka, Dwarka, Delhi, 110075, India",https://maps.google.com/?cid=9521267008275315046,DEL,0.07155221122195592,1347.25,3.026162520981262,DEL3,28.5754581,77.0542876,District Park,
"C, 1090, Deoli Rd, Tigri Colony, Block-C, Extention, New Delhi, Delhi 110080, India",https://maps.google.com/?cid=3168261658070350454,DEL,0.11513823010437933,1988.923076923077,8.861077701625868,DEL0,28.512700799999998,77.2356234,Tigri Park,
"Sir, H2FX+MG9, Sector 19B, Nanda Enclave, Dwarka, nursary, Delhi, 110075, India",https://maps.google.com/?cid=5830122184749987949,DEL,0.07779420205967352,1520.5813953488373,3.3348858804607238,DEL3,28.5741733,77.04884489999999,Sri dwaraka nursary,
"G4MQ+QFC, Garhi's Tomb Rd, Ruchi Vihar, Vasant Kunj, New Delhi, Delhi 110070, India",https://maps.google.com/?cid=13017159483215518474,DEL,0.17092369070979838,640.8108108108108,3.0920679906665436,DEL0,28.5344357,77.1386441,Sultan Gari Archaeological Park,
"Nehru Nagar, Lajpat Nagar, New Delhi, Delhi 110024, India",https://maps.google.com/?cid=17977133826332781693,DEL,0.1660473110512112,1921.121951219512,9.130956974755195,DEL2,28.5695405,77.2535367,Block 1,
"H595+C42 Botswan High Commission, Block E, Vasant Vihar, New Delhi, Delhi 110057, India",https://maps.google.com/?cid=9306961194176129454,DEL,0.0301606903888052,612.5818181818182,3.319037642463382,DEL1,28.568501899999998,77.1577519,Botswana Park,
"D1/10, Block D, Vasant Vihar, New Delhi, Delhi 110057, India",https://maps.google.com/?cid=11426746004427228845,DEL,0.1667067265084148,558.6279069767442,3.0441462783885793,DEL1,28.566350900000003,77.15326859999999,Meditation point,
"K-75, Block K, Lajpat Nagar II, Lajpat Nagar, New Delhi, Delhi 110024, India",https://maps.google.com/?cid=4173730963036521710,DEL,0.054534243927385775,1895.7045454545455,8.624151922147021,DEL2,28.567895699999998,77.24521469999999,K Block park,
"O33, Block O, Lajpat Nagar II, Lajpat Nagar, New Delhi, Delhi 110024, India",https://maps.google.com/?cid=7959233360407682357,DEL,0.03516128387717658,1926.7619047619048,8.710369751642995,DEL2,28.566384499999998,77.2466433,Rajapuri vishvash park uttam nagar east,
"H2GX+M46, Sector 19, Nanda Enclave, Dwarka, New Delhi, Delhi, 110075, India",https://maps.google.com/?cid=16058120056375821690,DEL,0.05523288386008303,1570.7826086956522,3.4301165239114884,DEL3,28.5766639,77.0477733,"Green Park, Nanda Enclave, Sector-19",
"G66P+XMW, Janta Jivan Camp, Tigri Colony, Tigri, New Delhi, Delhi 110062, India",https://maps.google.com/?cid=11161732060930305522,DEL,0.11661993385561899,1992.357142857143,8.925703815636336,DEL0,28.5124967,77.2366886,Peer baba park,
"Leela Ram Market, H679+PC8, Guneet Kashyap Marg Rd, South Extension II, Masjid Moth Village, New Delhi, Delhi 110049, India",https://maps.google.com/?cid=10408184042799436667,DEL,0.2003029897701255,1692.64,7.00865706402815,DEL1,28.5642963,77.2185722,Park - Masjid Moth,
"New, G66V+FVG, Talimabad, Sangam Vihar, New Delhi, Delhi 110062, India",https://maps.google.com/?cid=7712555990314584921,DEL,0.14158128657108357,2040.4444444444443,9.406549904291564,DEL0,28.5111913,77.24471009999999,Near Batra DDA park,
"B4, Housing Society, Gurudwara Rd, South Extension I, Block C, New Delhi, Delhi 110049, India",https://maps.google.com/?cid=5915741258158403687,DEL,0.11752503945585022,1788.275,7.276367994734583,DEL1,28.569416,77.222968,MCD Park,
"H5F9+3FC, Sector 8, Rama Krishna Puram, New Delhi, Delhi 110022, India",https://maps.google.com/?cid=2364823480868073661,DEL,0.2380507657546019,809.625,3.9999621966532533,DEL1,28.5726834,77.1686448,Sector-8 Local Park,
"1562-1578, Harijan Basti, Arun Vihar, Sector 37, Noida, Uttar Pradesh 201203, India",https://maps.google.com/?cid=8309813637576600229,DEL,0.10427135743367379,3038.060606060606,14.50238051953024,DEL2,28.5663975,77.3420907,Central Park Ward 12,
"IAA Colony, Sector D, Vasant Kunj, New Delhi, Delhi 110070, India",https://maps.google.com/?cid=5807816112969042758,DEL,0.12002251534102655,764.3448275862069,3.678992011660969,DEL0,28.5281427,77.1451459,Children's Park,
"84, Gulmohar Ave, Jamia Nagar, Okhla, New Delhi, Delhi 110025, India",https://maps.google.com/?cid=10022645231597476848,DEL,0.23161803668049152,2250.4166666666665,11.212580265869422,DEL2,28.5621525,77.2878076,"Tikona Park, Okhla",
"E-1, Rangpuri Pahari, Rangpuri, New Delhi, Delhi 110076, India",https://maps.google.com/?cid=1815950237683664537,DEL,0.23707185199277692,514.9375,2.696291733402994,DEL0,28.536946699999998,77.1321163,"Central Park, DDA Flats, E-1, Vasant Kunj",
"H775+JJC, Sriniwaspuri Extn, Block M-2, Private Colony, Sri Niwaspuri, New Delhi, Delhi 110065, India",https://maps.google.com/?cid=5919701434484780375,DEL,0.15883942373584203,1957.8510638297873,9.462686062101497,DEL2,28.564054700000003,77.25901429999999,Mini Market Park Block O,
"New, H7CF+592, Block B, New Friends Colony, New Delhi, Delhi 110065, India",https://maps.google.com/?cid=6003931030046684336,DEL,0.2457745534700626,2307.125,10.336642201300657,DEL2,28.570375199999997,77.273389,Municipal Park,
"H69F+R5M, South Extension, Block C, New Delhi, Delhi 110049, India",https://maps.google.com/?cid=10001477450290156472,DEL,0.12811703982862707,1788.275,7.273033649958862,DEL1,28.5695923,77.2229074,Aditya Birla udhyan Block C,
"G5GC+GP4, Sanjay Van Path, Lakhi Nath Kuti, Mehrauli, New Delhi, Delhi 110016, India",https://maps.google.com/?cid=3829342002357571143,DEL,0.10706672084160677,1251.123076923077,5.0127540514399485,DEL0,28.526255199999998,77.17182199999999,Sanjay van,
"G4MW+3GR, Pocket 1, Sector C, Vasant Kunj, New Delhi, Delhi 110070, India",https://maps.google.com/?cid=3750006959504769012,DEL,0.15477573105258555,758.3888888888889,3.5092534882790227,DEL0,28.5325632,77.1461219,Mt. Vasant Kunj,
"Nehru Nagar, Lajpat Nagar, New Delhi, Delhi 110065, India",https://maps.google.com/?cid=9258103358692017751,DEL,0.23259415397667413,1886.904761904762,9.143851633687056,DEL2,28.5706332,77.2537163,Block 2 Park,
"H77J+695, Jamia Millia Islamia, Jamia Nagar, Okhla, New Delhi, Delhi 110025, India",https://maps.google.com/?cid=7504000841231890921,DEL,0.1886928528558577,2145.1739130434785,10.794180225329102,DEL2,28.5630284,77.280936,H77J+695,
"H68C+32H, Pushpa Rd, South Extension II, Block B, New Delhi, Delhi 110049, India",https://maps.google.com/?cid=7044506069742755811,DEL,0.14036105409514837,1726.6153846153845,7.0923468314954965,DEL1,28.565247000000003,77.2199704,Rahil Park,
"Block C, Defence Colony, New Delhi, Delhi 110024, India",https://maps.google.com/?cid=17490183434292472188,DEL,0.16410049423301584,1834.483870967742,7.742563276921197,DEL1,28.5699622,77.23063599999999,Sukun Park,
"Butterfly Park, Qila Rai Pithora, Sainik Farm, G5CQ+CW5, Butterfly Park, Qila Rai Pithora, Sainik Farm, New Delhi, Delhi 110016, India",https://maps.google.com/?cid=17638250500876167832,DEL,0.02621481177717084,1585.0535714285713,6.1324467642241,DEL0,28.5210248,77.18987,Ahinsa Sthal,
"Sector 13 R K Puram, Block P, Sector 13, Netaji Nagar, New Delhi, Delhi 110023, India",https://maps.google.com/?cid=8431326590231833850,DEL,0.24166346554203258,1059.24,4.8289687605886416,DEL1,28.5724418,77.18239539999999,Model Park,
"H79R+GXR, Batla House, Okhla, New Delhi, Delhi 110025, India",https://maps.google.com/?cid=6259948994913326224,DEL,0.18288961415203725,2158.5625,11.487795785479342,DEL2,28.5688732,77.2923959,Kalindi Biodiversity Park (DDA),
"H89W+6V7, A Block, Sector 39, Noida, Uttar Pradesh 201303, India",https://maps.google.com/?cid=10084665363922734656,DEL,0.21110563428860402,3032.3809523809523,14.811732682968083,DEL2,28.5680391,77.3471842,Shashi Chowk,
"H69Q+4P2, Block F, Lajpat Nagar III, Lajpat Nagar, New Delhi, Delhi 110024, India",https://maps.google.com/?cid=8761595484225629352,DEL,0.03871018306763249,1862.0754716981132,8.262664567605794,DEL2,28.5677685,77.2392588,Arjan Bedi Park,
"H76J+W5C, Jamia Millia Islamia, Jamia Nagar, Okhla, New Delhi, Delhi 110025, India",https://maps.google.com/?cid=15226704343287182162,DEL,0.23267819313358692,2206.6666666666665,10.761886978708105,DEL2,28.5623169,77.2803832,Mohd,
"H686+9F2 AIIMS Hospital, Ansari Nagar East, New Delhi, Delhi 110029, India",https://maps.google.com/?cid=12376289624364710777,DEL,0.04648806448364482,1585.2142857142858,6.612087130274518,DEL1,28.567001100000002,77.2120643,Rose garden Aiims,
"H594+7WW, Cross Rd 9, Block C, Vasant Vihar, New Delhi, Delhi 110057, India",https://maps.google.com/?cid=9278142876374475064,DEL,0.04677692604519811,602.75,3.2926302480617027,DEL1,28.5682374,77.1573281,Fursang Park,
"8250, Nelson Mandela Marg, Pocket 1, Sector C, Vasant Kunj, New Delhi, Delhi 110070, India",https://maps.google.com/?cid=10940895817730858230,DEL,0.14988547022257218,793.5344827586207,3.647226493976951,DEL0,28.5319614,77.1485482,"C 1, Community Park",
"H892+M4J, Okhla Bird Sanctury, Sector 15A, Noida, Uttar Pradesh 201301, India",https://maps.google.com/?cid=3377873221666500942,DEL,0.21467238278751208,2253.451612903226,11.965701941759361,DEL2,28.569205999999998,77.30026699999999,Okhla Bird Sanctuary,This riverside bird sanctuary features over 300 species of birds & diverse plantlife.
"188, Anuj Vihar, Shankar Vihar, New Delhi, Delhi 110037, India",https://maps.google.com/?cid=13563145253594127431,DEL,0.155234327796447,429.7073170731707,2.6902471881639003,DEL1,28.571798299999998,77.1470257,Fruit Garden CAMS,
"H784+377, Block G, Sri Niwaspuri, New Delhi, Delhi 110065, India",https://maps.google.com/?cid=4279528912997241381,DEL,0.09642990214315256,1948.2692307692307,9.259556222870764,DEL2,28.565163,77.255685,Swami Vivekananda Park (Committee Park),
"A2/175, Block A 2, Nauroji Nagar, Safdarjung Enclave, New Delhi, Delhi 110029, India",https://maps.google.com/?cid=14489366146694608051,DEL,0.0704975671141521,1203.8059701492537,5.3207191203839415,DEL1,28.567109700000003,77.1907824,Mcd park ward no 163,
"G749+Q38, Tughlaqabad Village, Tughlakabad, New Delhi, Delhi 110044, India",https://maps.google.com/?cid=7706724593719928764,DEL,0.18841753839863565,2234.846153846154,10.805658291410492,DEL0,28.5069055,77.2676901,Tughlaqabad Lake,
"G4HX+VF3, Masoodpur, Sector B, Vasant Kunj, New Delhi, Delhi 110070, India",https://maps.google.com/?cid=6850591960540873520,DEL,0.013578631351190905,795.0806451612904,3.7604576421511022,DEL0,28.5296358,77.148685,Mahipalpur,
"West Block, Rama Krishna Puram, New Delhi, Delhi 110022, India",https://maps.google.com/?cid=17853657952061533429,DEL,0.06416670901421903,1076.936170212766,4.832384067612842,DEL1,28.5695101,77.18266489999999,Dr Bhim Rao Ambedkar Park,
"NH 48, Shankar Vihar, New Delhi, Delhi 110057, India",https://maps.google.com/?cid=560957658060823343,DEL,0.27745376872297367,255.3,2.0278721165175893,DEL1,28.5649089,77.1364722,National Highway 48,
"NO. B-72, Rohit House, 2nd Floor, Vishwa Karma Colony, Mehrauli - Badarpur Rd, opp. Inland Container Depot, Airforce Residential Quarters, Tughlakabad, New Delhi, Delhi 110044, India",https://maps.google.com/?cid=597250624878641320,DEL,0.2526138559140962,2226.909090909091,10.737428211906929,DEL0,28.5082348,77.2670948,Adilabad Fort Entry Point,
"Centumu Rd, Block M, Lajpat Nagar III, Lajpat Nagar, New Delhi, Delhi 110024, India",https://maps.google.com/?cid=10171468549247602067,DEL,0.03308970894348984,1846.675,8.06913720951035,DEL2,28.5677454,77.2360697,Centumu Road,
"G4MR+WR5, Pocket 8, Sector C, Vasant Kunj, New Delhi, Delhi 110070, India",https://maps.google.com/?cid=12025615118720696335,DEL,0.23371580751976437,677.35,3.2271474048536026,DEL0,28.534752899999997,77.14210489999999,C8 Park,
"C-70A, Sector 39 Block C Rd, C Block, Sector 39, Noida, Uttar Pradesh 201301, India",https://maps.google.com/?cid=7594373840750201893,DEL,0.10293181357809783,3081.025,14.973276227802794,DEL2,28.5661933,77.34985019999999,C Block Park,
"Mahatma Gandhi Rd, South Extension II, New Delhi, Delhi 110049, India",https://maps.google.com/?cid=9011326123951258577,DEL,0.044501623422502065,1720.8809523809523,7.0805195070769855,DEL1,28.5682998,77.2197679,Mahatma Gandhi Road,
"H2GX+PV5, Sector 19, Nanda Enclave, Dwarka, Delhi, 110075, India",https://maps.google.com/?cid=14080566845468399525,DEL,0.08763310066278376,1496.9512195121952,3.3159215782228992,DEL3,28.5767696,77.0497236,Amberhai Bus Stand Park,
"Sector 19 Dwarka Sector 19B Sector 19 Dwarka, Sector 19B, Dwarka, Delhi, 110075, India",https://maps.google.com/?cid=9088228051914400442,DEL,0.1034153591585893,1576.909090909091,3.7757104424128007,DEL3,28.5753557,77.0417034,Park,
"H67C+PJW, South Extension, Block R, New Delhi, Delhi 110049, India",https://maps.google.com/?cid=14967071296900345630,DEL,0.19133811707980541,1781.6470588235295,7.1901483541061895,DEL1,28.564363,77.2215653,Asram park,
"H78F+J3F, Block A, New Friends Colony, New Delhi, Delhi 110025, India",https://maps.google.com/?cid=7109081831942167641,DEL,0.013233258779106723,2013.396551724138,10.289925236000938,DEL2,28.5665595,77.2726732,Mahila Park,
"B5 Block, B4 Block, Safdarjung Enclave, Delhi, New Delhi, Delhi 110029, India",https://maps.google.com/?cid=7306232808314431783,DEL,0.20617813670135682,1274.939393939394,5.614423267010729,DEL1,28.5647637,77.19560299999999,WK little garden,
"H77M+2RC, Jamia Senior Secondary School Rd, Jamia Nagar, Okhla, New Delhi, Delhi 110025, India",https://maps.google.com/?cid=2539727860797957490,DEL,0.21157864170107274,2243.6666666666665,11.012638243003272,DEL2,28.5625632,77.2845241,Mughal Garden,
"Shop No, MCD Hospital Rd, Block I, Lajpat Nagar II, Lajpat Nagar, New Delhi, Delhi 110024, India",https://maps.google.com/?cid=14737049192260310460,DEL,0.2301942541823665,1872.0,8.475561501474465,DEL2,28.5708484,77.24268909999999,Lajpat Nagar Park,
"Amar Shaheed Babu Ganu Marg, Sector 9, Rama Krishna Puram, New Delhi, Delhi 110022, India",https://maps.google.com/?cid=5097485674995407431,DEL,0.25717989689169035,871.375,4.169924823240157,DEL1,28.572937800000002,77.1714308,Chhatri Wala Park,
"G4JG+3HM, Rangpuri Pahari, Rangpuri, New Delhi, Delhi 110076, India",https://maps.google.com/?cid=64239708619280170,DEL,0.23453259753724265,444.3142857142857,2.878543370255826,DEL0,28.5302203,77.126419,Rohan,
"G-47A, Sector 39 Block G Rd, G Block, Sector 39, Noida, Uttar Pradesh 201301, India",https://maps.google.com/?cid=5173589169963438898,DEL,0.2767341834585047,3079.1923076923076,15.262519429026385,DEL2,28.568883099999997,77.35460549999999,G Block Park,
"H79J+CC9, Street Number 9, Jogabai Extension, Zakir Nagar, Okhla, New Delhi, Delhi 110025, India",https://maps.google.com/?cid=11044367583731078163,DEL,0.14633835311050125,2104.777777777778,10.80321362209837,DEL2,28.568546599999998,77.2811182,Park no 9,
"G68H+F3J, RPS Colony, Madangir, New Delhi, Delhi 110062, India",https://maps.google.com/?cid=4535599513133986182,DEL,0.22191295745863857,1880.0344827586207,8.319602457699913,DEL0,28.5162144,77.2276462,RPS Colony Park,
"C6/15, Street C6, Block C, Vasant Vihar, New Delhi, Delhi 110057, India",https://maps.google.com/?cid=9111606730588496142,DEL,0.032094437636293466,626.7936507936508,3.3587342945444396,DEL1,28.5695149,77.1583473,Avtarrana Park,
"G4PJ+VVQ, Rangpuri Pahari, Rangpuri, New Delhi, Delhi 110070, India",https://maps.google.com/?cid=3696327144476685864,DEL,0.25396922131531685,506.45,2.6873807079900565,DEL0,28.5372064,77.132233,Saherawat nursery,
"B Block, Sector E1, Vasant Kunj, New Delhi, Delhi 110070, India",https://maps.google.com/?cid=4902019366428891243,DEL,0.23036934328774963,523.9375,2.75367791801673,DEL0,28.5366179,77.13312549999999,B Block Kids Park,
"K Block, Veer Savarkar Marg, Block K, Lajpat Nagar II, Lajpat Nagar, New Delhi, Delhi 110024, India",https://maps.google.com/?cid=17229516917453321762,DEL,0.0036170020026983765,1904.1707317073171,8.651910754144806,DEL2,28.567045800000002,77.24567909999999,Park,
"New, G4MQ+4X7, Ruchi Vihar, Vasant Kunj, New Delhi, Delhi 110070, India",https://maps.google.com/?cid=6596077007252185793,DEL,0.09020884863262792,667.4222222222222,3.227875182011339,DEL0,28.5327994,77.1399363,DDA GREEN PARK,
"Pocket 10, Sector B, Vasant Kunj, New Delhi, Delhi 110070, India",https://maps.google.com/?cid=12734886713778870960,DEL,0.2061809914960806,930.2941176470588,3.940853461083676,DEL0,28.5316369,77.1544931,Cultural Park,
"RK Puram Rd, West End Colony, Block A, New Delhi, Delhi 110021, India",https://maps.google.com/?cid=3151148380971798676,DEL,0.2580483748611026,696.25,3.684072217677943,DEL1,28.5731292,77.1633452,RK Puram Road,
"Saidulajab, Block A, Paryavaran Complex, Saket, New Delhi, Delhi 110030, India",https://maps.google.com/?cid=2367251342174640307,DEL,0.002350044232063947,1789.1698113207547,6.980348862795169,DEL0,28.517573,77.2037209,Shaheed Bhagat Singh Park,
"H6C4+7G2 Path for Patient Movement in hospital, Safdarjung Campus, Kidwai Nagar, New Delhi, Delhi 110029, India",https://maps.google.com/?cid=12787668145887677805,DEL,0.16500732830389703,1473.6969696969697,6.26588275443224,DEL1,28.5706314,77.2062552,Central Park Kidwai nagar,
"Block A, Sector 8 Dwarka, Dwarka, New Delhi, Delhi, 110077, India",https://maps.google.com/?cid=6305382833855579572,DEL,0.2005064935071923,1135.5714285714287,2.025874312980136,DEL3,28.573070299999998,77.0705673,Jahaz Wala Park dwarka sec-8 New delhi110077,
"H583+5PV, Block D, Vasant Vihar, New Delhi, Delhi 110057, India",https://maps.google.com/?cid=11279431597432691355,DEL,0.2173697117765672,573.8235294117648,3.1071206678655083,DEL1,28.5654929,77.1542936,Duck Park,
"F-1, Kalindi Kunj Rd, Nai Basti, Jamia Nagar, Okhla, New Delhi, Delhi 110025, India",https://maps.google.com/?cid=2919703817478991477,DEL,0.23340206871173497,2244.6875,11.658001741162792,DEL2,28.5619442,77.29514370000001,EASTERN PARK,
"Sector 39, Noida, Uttar Pradesh 201301, India",https://maps.google.com/?cid=2858957826532612900,DEL,0.18199597536434742,3079.967741935484,15.044099449249627,DEL2,28.567468899999998,77.3510166,Sector 39 Park,
"Main Market, H773+G4J, Block H, Sri Niwaspuri, New Delhi, Delhi 110065, India",https://maps.google.com/?cid=6565817834711800549,DEL,0.18031049769367877,1912.0,9.084356065715115,DEL2,28.5638492,77.25277410000001,Park,
"Pocket 9, Sector B, Vasant Kunj, New Delhi, Delhi 110067, India",https://maps.google.com/?cid=4172640840252387177,DEL,0.23704072787062183,963.1219512195122,4.040280148169337,DEL0,28.5317045,77.1566051,Rock Park,
"H3FC+664, Block A, Sector 8 Dwarka, Dwarka, New Delhi, Delhi, 110077, India",https://maps.google.com/?cid=11283278220803972302,DEL,0.19805283666639273,1135.5714285714287,2.0248116707908643,DEL3,28.573014399999998,77.07057069999999,Swimming pool wala Park,
"Cariappa Marg, Defence Area, Sainik Farm, New Delhi, Delhi 110044, India",https://maps.google.com/?cid=9544692082456540714,DEL,0.05157063222440792,1858.7755102040817,7.6396253741465925,DEL0,28.51604,77.21509689999999,Cariappa Marg,
"D-73, Dron Marg, Block D, Defence Colony, New Delhi, Delhi 110049, India",https://maps.google.com/?cid=6886530963452077233,DEL,0.1796263043195752,1854.2608695652175,7.86434801070788,DEL2,28.567231099999997,77.2326995,Tikona park,
"Central Park, B Block, Block B, Vasant Vihar, New Delhi, Delhi 110057, India",https://maps.google.com/?cid=8779340250718033468,DEL,0.1317779787056979,701.3255813953489,3.5758854547343666,DEL1,28.5667324,77.162031,B Block Central Park,
"H2MJ+CRF, Sector 16D Dwarka, Kakrola, Delhi, 110075, India",https://maps.google.com/?cid=17018988164227435536,DEL,0.25263699320202365,1939.157894736842,4.470296507238869,DEL3,28.583573800000003,77.032043,Sector 16 D Park,
"H3G3+85M, Dwarka, New Delhi, Delhi, 110075, India",https://maps.google.com/?cid=10969430827605051572,DEL,0.07584032780997715,1403.4888888888888,3.1130087556311885,DEL3,28.5758439,77.0529174,Running Rabbits Park,
"Mehrauli, Christian Colony, Mehrauli, New Delhi, Delhi 110030, India",https://maps.google.com/?cid=17772971842518160448,DEL,0.03604424840862557,1447.6909090909091,5.764104684057842,DEL0,28.522494899999998,77.183785,Onelifekey,
"Palika Bhawan, Sector 13, R.K. Puram, Block B, Sector 13, Rama Krishna Puram, New Delhi, Delhi 110066, India",https://maps.google.com/?cid=8177271614805499925,DEL,0.13111009665283235,1104.9464285714287,4.944587693264232,DEL1,28.570573999999997,77.184456,RamaKrishna Puram - Park,
"IUAC Internal (Inter University Accelerator Centre), Jawaharlal Nehru University, New Delhi, Delhi 110067, India",https://maps.google.com/?cid=1387881012860706399,DEL,0.09409080210523008,1136.9661016949153,4.717629245926305,DEL0,28.52715,77.16662529999999,IUAC Internal (Inter University Accelerator Centre),
"H68P+VRM, Block E, Lajpat Nagar III, Lajpat Nagar, New Delhi, Delhi 110024, India",https://maps.google.com/?cid=18278301935230421987,DEL,0.001354394561208714,1843.2391304347825,8.128591594567533,DEL2,28.567200999999997,77.2370543,Sri Ramasarnam Park,
"Block B, Paryavaran Complex, Sainik Farm, New Delhi, Delhi 110030, India",https://maps.google.com/?cid=11085063573394801862,DEL,0.018089827496203744,1789.1698113207547,6.979793992804221,DEL0,28.517341499999997,77.203564,DDA Park (SHAHEED PARK),
"Khasra no. 266, Indian Oil Petro Pump, Samalkha, D Block, Rangpuri, New Delhi, Delhi 110037, India",https://maps.google.com/?cid=12758768328776208298,DEL,0.24495062147091934,99.96551724137932,2.2308622133254254,DEL0,28.5343373,77.1063302,Dahiya Badshah Park,
"H3H3+CF5 Modern International School, Sector 19, Pocket 1, Dwarka, New Delhi, Delhi, 110075, India",https://maps.google.com/?cid=758204682315363085,DEL,0.24455097578539248,1252.7777777777778,3.1086081320339365,DEL3,28.578509699999998,77.05373279999999,"Oneness Vann - Dwarka, SNM",
"A-Block, H6CQ+8CJ, Veer Savarkar Marg, Block A, Lajpat Nagar II, Lajpat Nagar, New Delhi, Delhi 110024, India",https://maps.google.com/?cid=5769255521815207773,DEL,0.22366555336025667,1818.962962962963,8.221616436869512,DEL2,28.5708338,77.23850209999999,Royal Palm Park,
"B-725, Janta Jivan Camp, Tigri Colony, Janta Jivan Camp, Block B, Devli, Extension, New Delhi, Delhi 110080, India",https://maps.google.com/?cid=7210205035047034709,DEL,0.1148924600574777,1988.0,8.967486805835756,DEL0,28.512324099999997,77.2373558,Community Hall Tigri,
"Paryavaran Complex, B-77, Block A, Saiyad ul Ajaib, Sainik Farm, New Delhi, Delhi 110030, India",https://maps.google.com/?cid=8455062219060692378,DEL,0.06863792676200002,1805.906976744186,7.047723185191413,DEL0,28.516350499999998,77.204214,Rohan Gardener,
"Mehrauli Archeological Pk Trl, Christian Colony, Mehrauli, New Delhi, Delhi 110030, India",https://maps.google.com/?cid=14409977256758015356,DEL,0.03766509614378144,1493.2571428571428,5.910013062923741,DEL0,28.5208904,77.1854773,Nazir Ka Bagh,
"House no 161 Kaveri Apartment, D6, Sector D, Vasant Kunj, New Delhi, Delhi 110070, India",https://maps.google.com/?cid=10563721721197028876,DEL,0.2036346592284023,893.7777777777778,4.105999162785002,DEL0,28.525298,77.151854,Janki Sadan,
"H77M+QV6, Jamia Nagar, Okhla, New Delhi, Delhi 110025, India",https://maps.google.com/?cid=6704416701547006841,DEL,0.1012097414497701,2220.266666666667,11.017645994895375,DEL2,28.564379499999998,77.28464749999999,H77M+QV6,
"Cariappa Marg, Defence Area, Sainik Farm, New Delhi, Delhi 110044, India",https://maps.google.com/?cid=6098326501685865048,DEL,0.019094663409895928,1884.0357142857142,7.6815175784114915,DEL0,28.5154061,77.21550119999999,Cariappa Marg,
"Mehrauli Archeological Park Near Qutub Complex Exit Gate, G59Q+X2H, Christian Colony, Mehrauli, New Delhi, Delhi 110030, India",https://maps.google.com/?cid=10944214077446895643,DEL,0.0666818135915176,1552.5,6.053710785698671,DEL0,28.519946899999997,77.1875982,Парк,
"Shop No 15near, Petrol Pump, Pocket 7, J J Colony, Vasant Kunj, New Delhi, Delhi 110070, India",https://maps.google.com/?cid=5717287375517609137,DEL,0.010074112938920188,769.6349206349206,3.617397561649353,DEL0,28.5301516,77.1459998,Rohit puri goswami Marg,
"Kali mata mandir E-2 Vasant Kunj, Vasant Kunj, New Delhi, Delh, Sector E, Mahipalpur Village, Vasant Kunj, New Delhi, Delhi 110070, India",https://maps.google.com/?cid=17196654420776279293,DEL,0.2393305805235308,472.37931034482756,2.5757966439546034,DEL0,28.5374892,77.1297579,TEVATIA FARM Rangpuri,
"H2FX+Q5F, Sector 19, Nanda Enclave, Dwarka, Delhi, 110075, India",https://maps.google.com/?cid=18094983932473436960,DEL,0.07468194222286346,1539.7254901960785,3.3939691555119724,DEL3,28.574438299999997,77.0479074,Park,
"H59J+JX4, West Block, Rama Krishna Puram, New Delhi, Delhi 110022, India",https://maps.google.com/?cid=17419732542472684198,DEL,0.033306493833787726,1073.4666666666667,4.818414226582208,DEL1,28.569005999999998,77.182457,Garden,
"NARMADA SARASWATI, Pocket 6, D6, Sector D, Vasant Kunj, New Delhi, Delhi 110070, India",https://maps.google.com/?cid=15562703991154126694,DEL,0.23617375003051735,745.8823529411765,3.6971264669427186,DEL0,28.5265193,77.14358849999999,Garden near tower 6,
"H789+VF2, Mata Mandir Rd, Block D, Bharat Nagar, New Friends Colony, New Delhi, Delhi 110065, India",https://maps.google.com/?cid=7307945590985004665,DEL,0.041854797877424826,2045.7708333333333,10.045136641537782,DEL2,28.567129899999998,77.2686382,Kandhoua krashi fharm,
"Nbcc Central Courtyard Garden Under Construction, Block A, East Kidwai Nagar, Kidwai Nagar, New Delhi, Delhi 110023, India",https://maps.google.com/?cid=10406781652508314691,DEL,0.20098798063168818,1586.7777777777778,6.632464915927496,DEL1,28.571075200000003,77.2122795,Type 4 park,
"R9, South Extension, Block R, New Delhi, Delhi 110049, India",https://maps.google.com/?cid=6576893144441238874,DEL,0.23003974439506208,1763.8,7.158807750151595,DEL1,28.563739599999998,77.22103160000002,R block park,
"H58R+3PR, Block B 3, Safdarjung Enclave, New Delhi, Delhi 110029, India",https://maps.google.com/?cid=13338005241957431075,DEL,0.18318079262738343,1252.2777777777778,5.380717914319145,DEL1,28.5652302,77.1917613,B-3 SJE PARK,
"H3CC+3QW, Block D, Sector 8 Dwarka, Dwarka, New Delhi, Delhi, 110077, India",https://maps.google.com/?cid=11685244526232189256,DEL,0.27301616480825186,773.6666666666666,1.9087668892425855,DEL3,28.5702407,77.0719383,MCD Central Park ( MIDDLE PARK) D block Sec 8,
"19065, Nehru Nagar, New Delhi, Delhi 110065, India",https://maps.google.com/?cid=7656924154912511347,DEL,0.15139143125007878,1921.121951219512,9.128070187688888,DEL2,28.5692999,77.253495,Second Lieutenant Vivek Sajwan शिलाफलकम (स्मारक) मेरी माटी मेरा देश,
"New, H774+M9J, Block G, Sri Niwaspuri, New Delhi, Delhi 110065, India",https://maps.google.com/?cid=14340488289569922363,DEL,0.15401587203481124,1966.3333333333333,9.272576744097096,DEL2,28.564209,77.2558842,City Circle Park,
"Sector B Rd, Pocket 5 and 6, Sector B, Vasant Kunj, New Delhi, Delhi 110067, India",https://maps.google.com/?cid=17615250250941572734,DEL,0.0541575966984646,1169.3333333333333,4.8630887657729325,DEL0,28.524488899999998,77.1673891,Sector B Road,
"G5CH+5FM, Jatva Basti, Mehrauli, New Delhi, Delhi 110030, India",https://maps.google.com/?cid=11973298559348453493,DEL,0.14965700449306524,1395.7333333333333,5.581396955276877,DEL0,28.520463699999997,77.17866599999999,Anwar,
"H6C9+52H, Ring Rd, Near MAAC Institute, South Extension I, Block J, New Delhi, Delhi 110049, India",https://maps.google.com/?cid=2186748244908225621,DEL,0.17033244233591788,1662.861111111111,6.953386205071245,DEL1,28.5704319,77.2176045,MCD Park,
"Bhikaji Cama Place Metro Station Bhikaji Cama Place Gail, BHIKAJI CAMA PLACE, Block F, Bhikaji Cama Place, Rama Krishna Puram, New Delhi, Delhi 110066, India",https://maps.google.com/?cid=5824424527775515043,DEL,0.07495240493858446,1191.4426229508197,5.2594061085803085,DEL1,28.5695314,77.189707,Dr Shalu Anand Circle,
"H894+PP9, Bird Sanctury Rd, Okhla Bird Sanctury, Okhla, Noida, Uttar Pradesh 201301, India",https://maps.google.com/?cid=16087139600218323507,DEL,0.22958869700000417,2320.6923076923076,12.365120764185233,DEL2,28.5692934,77.3068485,Watch Tower 1 Bird Sanctury,
"G67M+PW4, Dr.Ambedkar Nagar, Block G, Sector 5, Dakshinpuri, New Delhi, Delhi 110062, India",https://maps.google.com/?cid=2926932576699060301,DEL,0.19780510531097023,2044.1851851851852,8.773029275780159,DEL0,28.5142617,77.23484119999999,G Block Park,
"H598+RXF, Sector 7, Rama Krishna Puram, New Delhi, Delhi 110022, India",https://maps.google.com/?cid=17042460788344643256,DEL,0.04693144256703729,767.6603773584906,3.909361265967932,DEL1,28.5695596,77.1674336,Rock Garden,
"H69P+PR4, Block B, Lajpat Nagar III, Lajpat Nagar, New Delhi, Delhi 110024, India",https://maps.google.com/?cid=11871137294128140280,DEL,0.1257781048569148,1846.675,8.13155530176074,DEL2,28.569251299999998,77.23707019999999,street,
"G5GC+4Q3, Shamshan Rd, Lakhi Nath Kuti, Mehrauli, New Delhi, Delhi 110016, India",https://maps.google.com/?cid=3625595588404441458,DEL,0.04887047762029275,1251.123076923077,5.055900998497151,DEL0,28.525255599999998,77.1719116,Sanjay Van Lake,
"H67H+J26, Rd Number 3, near Hudco Palace, Andrews Ganj, New Delhi, Delhi 110049, India",https://maps.google.com/?cid=2038939179095791360,DEL,0.2002306019153952,1825.3636363636363,7.551895305872105,DEL1,28.564048,77.22752,Vivekananda,
"Durga Vihar Rd, Deenpur, Data Ram Park, Najafgarh, Delhi, 110043, India",https://maps.google.com/?cid=641677598469816304,DEL,0.2807689433895769,2859.0,7.032668417054066,DEL3,28.5933664,76.99130749999999,Radha Swami Satsang Ashram,
"Dwarka Link Rd, D Block, Samalka, New Delhi, Delhi 110037, India",https://maps.google.com/?cid=6835758355217481945,DEL,0.23300599427975158,7.0,2.1019970770425718,DEL0,28.5362509,77.0994142,Airport Residency - Front lawn,
"Nanda Enclave, Nanda Enclave Gali No. 1, Sector 19, Nanda Enclave, Dwarka, Delhi, 110075, India",https://maps.google.com/?cid=15950399679198179669,DEL,0.008364960149854928,1539.7254901960785,3.4211279045741025,DEL3,28.575878399999997,77.0477448,Nanda Enclave Green Park Amberhai Village,
"G5CM+R47, Mehrauli Village, Mehrauli, New Delhi, Delhi 110030, India",https://maps.google.com/?cid=8889890069282118874,DEL,0.0035846115162295185,1438.9107142857142,5.730652202416173,DEL0,28.522036999999997,77.1828067,Children Park Mehrauli,
"Gate, Street Number 17, Jamia Millia Islamia, Jamia Nagar, Okhla, New Delhi, Delhi 110025, India",https://maps.google.com/?cid=12202967471265761847,DEL,0.24936136063049602,2198.4444444444443,11.014534079826614,DEL2,28.561940099999997,77.2845359,JMI Park,
"Teacher's Hostel, 54, University, Jamia Millia Islamia, Ghafoor Nagar, Okhla, New Delhi, Delhi 110025, India",https://maps.google.com/?cid=14630969261042414940,DEL,0.09357431493534625,2074.9375,10.768319852127844,DEL2,28.564605999999998,77.280542,Herbal Garden,
"H678+CM3 Overhead Tank, Gautam Nagar, New Delhi, Delhi 110049, India",https://maps.google.com/?cid=10102649644333314762,DEL,0.25561795358893236,1634.875,6.894973954336988,DEL1,28.5634348,77.216672,Water tank,
"H2GV+H87, Sector 19B, Dwarka, Delhi, 110075, India",https://maps.google.com/?cid=3367050401237469383,DEL,0.019696643884241256,1566.05,3.693850773746509,DEL3,28.576412599999998,77.0432852,Sector 19 B Peer Wala Park,
"G669+XQF, Sainik Farms Colony, Sainik Farm, New Delhi, Delhi 110062, India",https://maps.google.com/?cid=10070583424902526794,DEL,0.1069319583333987,1921.787234042553,7.987543248068232,DEL0,28.5124408,77.2194236,MM,
"H2M6+J32, Goyla Village, Delhi, 110071, India",https://maps.google.com/?cid=3663747824439329472,DEL,0.025097571797552978,2230.0,5.7694218326949995,DEL3,28.584004999999998,77.01013379999999,Celebration gardan,
"240, Janta Jivan Camp, Tigri Colony, Block A, Sangam Vihar, New Delhi, Delhi 110062, India",https://maps.google.com/?cid=2550580880445632615,DEL,0.10058961875534964,1988.5348837209303,8.925868965393828,DEL0,28.5122535,77.23656369999999,GreenIvy,
"P-12/1, Yoginder Vihar, Shankar Vihar, New Delhi, Delhi 110010, India",https://maps.google.com/?cid=186729826868772470,DEL,0.2060089813070618,347.1666666666667,2.2926832472868433,DEL1,28.5659843,77.14088079999999,Garden Yogender Vihar,
"G5CX+HHR, Mehrauli - Badarpur Rd, Butterfly Park, Qila Rai Pithora, Sainik Farm, New Delhi, Delhi 110016, India",https://maps.google.com/?cid=16627003676720768675,DEL,0.1685290118594903,1706.5238095238096,6.593832326327637,DEL0,28.521486399999997,77.1988973,MP Green Area Lado Saria Ph - II,
"H693+26W, Ansari Nagar West, New Delhi, Delhi 110029, India",https://maps.google.com/?cid=13643967439138366626,DEL,0.02217200878923156,1410.3272727272727,6.067659330439945,DEL1,28.567622099999998,77.2030862,SIC park,
"Dwarka Rd, Sport View, Delhi Cantonment, New Delhi, Delhi 110010, India",https://maps.google.com/?cid=1780081825283880294,DEL,0.1869677291860154,39.35294117647059,1.1767704033623745,DEL1,28.572542,77.1212354,Dwarka Road,
"G5FR+9QW, Chatri Wala Kuan, Lado Sarai, New Delhi, Delhi 110030, India",https://maps.google.com/?cid=17395121013858917058,DEL,0.19874800987063587,1601.1515151515152,6.15842196429521,DEL0,28.523481399999998,77.1919685,Play ground for children,
"G686+7JW, City Forest Hauzrani, Sainik Farm, New Delhi, Delhi 110062, India",https://maps.google.com/?cid=7051408132494390409,DEL,0.011021867191990112,1864.8695652173913,7.46073391727676,DEL0,28.515738,77.2115915,Yogi Adityanath Park,
"G32, Block G, Lajpat Nagar III, Lajpat Nagar, New Delhi, Delhi 110024, India",https://maps.google.com/?cid=16972408865154716523,DEL,0.022687885821213564,1848.2978723404256,8.181165788717749,DEL2,28.5667858,77.2379224,Justice Park,
"Main, Dadri Main Rd, Chhalera, Sector-44, Sector 38, Noida, Uttar Pradesh 201301, India",https://maps.google.com/?cid=653259319091772189,DEL,0.16673628534118956,2483.478260869565,12.95904114785464,DEL2,28.562528,77.316606,Bird feeding point,
"IIIrd Block Sahu, Gurudwara Rd, Block I, Lajpat Nagar III, Lajpat Nagar, New Delhi, Delhi 110024, India",https://maps.google.com/?cid=2067530417997521516,DEL,0.03926360405142008,1861.6440677966102,8.305572281894664,DEL2,28.567762,77.239966,Senior Citizen Forum,
"H695+F4P, Sri Aurobindo Marg, Safdarjung Campus, Ansari Nagar West, New Delhi, Delhi 110016, India",https://maps.google.com/?cid=15774096008069748789,DEL,0.05131558947652029,1496.0,6.355953983203569,DEL1,28.5687192,77.2078153,Safdarjung park,
"Block 6, Nehru Nagar, Lajpat Nagar, New Delhi, Delhi 110065, India",https://maps.google.com/?cid=14501007770899726812,DEL,0.2477007363384344,1946.8666666666666,9.065494428901903,DEL2,28.5709129,77.25241419999999,Block 6 Park,
"A132, Block A, Sector 8 Dwarka, Dwarka, New Delhi, Delhi, 110077, India",https://maps.google.com/?cid=13261002976236328686,DEL,0.2137496647980413,988.6,2.0200791675087415,DEL3,28.573240199999997,77.07071049999999,DDA Park,
"130-132, Captain Vijyant Thapar Marg, Sector 29, Noida, Uttar Pradesh 201301, India",https://maps.google.com/?cid=10993766243821619261,DEL,0.05895102809471334,2657.212121212121,14.020876437389703,DEL2,28.5658359,77.33415409999999,Vijyant Park,
"D75, Kalka Devi Marg, Block D, Amar Colony, Lajpat Nagar, New Delhi, Delhi 110024, India",https://maps.google.com/?cid=1975247050539286590,DEL,0.2260665889701815,1898.3181818181818,8.595868791343008,DEL2,28.563281999999997,77.24470699999999,MCD Park - Kalka Devi Marg,
"H972+CFQ, A Block, Sector 40, Noida, Uttar Pradesh 201303, India",https://maps.google.com/?cid=17608894530425247762,DEL,0.052910529129705855,3078.4871794871797,15.058354084405186,DEL2,28.563592099999997,77.35122729999999,A Block Park,
"H797+XMX, Block H, Maharani Bagh, New Friends Colony, New Delhi, Delhi 110025, India",https://maps.google.com/?cid=1471332431620248368,DEL,0.2092964027982322,2038.15625,9.780939275237554,DEL2,28.569996999999997,77.264239,H Road Park,
"H69W+MXF, Shiv Mandir Marg, Block L, Lajpat Nagar II, Lajpat Nagar, New Delhi, Delhi 110024, India",https://maps.google.com/?cid=677135038627730738,DEL,0.1355661728278703,1921.0,8.758885986687632,DEL2,28.569181,77.2474125,Sri Niwas Gupta Park,
"IRCH, AIIMS Campus, Ansari Nagar East, New Delhi, Delhi 110016, India",https://maps.google.com/?cid=7661324891976301287,DEL,0.018487162167482217,1585.2142857142858,6.605564797153837,DEL1,28.567465499999997,77.211953,AIIMS central Lawn,
"61, Sri Aurobindo Marg, Block A, Aviation Colony, INA Colony, New Delhi, Delhi 110023, India",https://maps.google.com/?cid=14731629482489005819,DEL,0.12187145648109797,1516.4242424242425,6.450150960890107,DEL1,28.5698449,77.2093304,Sprouts Art Installation By vibhor Sogani,"Contemporary public art installation in a park, featuring 40ft stainless steel ""sprouts."""
"G4JX+J54, C1 Vasant Kunj, Sector C, Vasant Kunj, New Delhi, Delhi 110070, India",https://maps.google.com/?cid=14882256636842557157,DEL,0.11549497679190479,779.6229508196722,3.6400990360191936,DEL0,28.531511599999998,77.147943,Saraswati Park,
"Block Park, C-288, opposite Defence Colony, Block L, Lajpat Nagar III, Lajpat Nagar, New Delhi, Delhi 110024, India",https://maps.google.com/?cid=14523115735015886550,DEL,0.07893946313523939,1864.840909090909,8.408062569884684,DEL2,28.5683786,77.2416464,Sukun Park,
"H973+7HC, C Block, Sector 40, Noida, Uttar Pradesh 201301, India",https://maps.google.com/?cid=8102552457460606821,DEL,0.07466490655955454,3034.3333333333335,15.220980945828332,DEL2,28.5631785,77.35390029999999,Deepa Pasricha,
"Nehru Nagar, Lajpat Nagar, New Delhi, Delhi 110065, India",https://maps.google.com/?cid=12054288898133789229,DEL,0.2653946837414059,1903.0,9.009056943956402,DEL2,28.5712267,77.25147129999999,Block 9 Park,
"H3F7+PCM, Sector 20 Dwarka, Dwarka, New Delhi, Delhi, 110075, India",https://maps.google.com/?cid=554387441841105693,DEL,0.1334068313295485,1111.3170731707316,2.4604198756535154,DEL3,28.574340799999998,77.063552,DDA Park,
"41, Africa Ave, Mohammadpur, Rama Krishna Puram, New Delhi, Delhi 110066, India",https://maps.google.com/?cid=14075928345818421648,DEL,0.1814406724589932,1124.1025641025642,4.982958349142442,DEL1,28.5654054,77.185209,Parking Park,
"66, Ring Rd, Block O, Lajpat Nagar III, Lajpat Nagar, New Delhi, Delhi 110024, India",https://maps.google.com/?cid=13512245924867210706,DEL,0.0957152399887938,1931.1052631578948,8.724094248592259,DEL2,28.5653813,77.2468632,"Green Park, Under Lajpat Nagar Flyover",
"Block D, Sector 8 Dwarka, Dwarka, Block D, Sector 8 Dwarka, Dwarka, New Delhi, Delhi, 110077, India",https://maps.google.com/?cid=9028914268579916736,DEL,0.26107148340954317,732.0,1.8885288247460377,DEL3,28.569457099999997,77.07216489999999,DDA District Park D- Block Sec 8,
"H2CX+PVQ, Dwarka, New Delhi, Delhi, 110075, India",https://maps.google.com/?cid=15648486845376605822,DEL,0.20460564309234788,1547.423076923077,3.259609562402994,DEL3,28.5718292,77.0497309,park,
"Dwarka Sector 9, Dwarka, Delhi, 110075, India",https://maps.google.com/?cid=15619302475475531279,DEL,0.20430003845212338,1126.388888888889,2.598727911619932,DEL3,28.575990899999997,77.0616632,DELHI POLICE STAFF QUARTERS,
"D, Sector 40 Block A Rd, Block D, Sector 40, Noida, Uttar Pradesh 201303, India",https://maps.google.com/?cid=5369751223703055075,DEL,0.26037814308123625,3292.3333333333335,15.434396368468217,DEL2,28.5654658,77.3574457,Preet Park,
"D Block, Block D, Defence Colony, New Delhi, Delhi 110024, India",https://maps.google.com/?cid=8286017347060677157,DEL,0.18385492804906364,1856.5,7.881587091049022,DEL2,28.569354399999998,77.2329469,"Nala Wala Park, Defence Colony",
"H789+PPJ, Lane 3, Block D, Bharat Nagar, New Friends Colony, New Delhi, Delhi 110065, India",https://maps.google.com/?cid=17864380644011086664,DEL,0.02557314235848042,2075.622641509434,10.083666276193673,DEL2,28.566845999999998,77.269274,DDA CHILDREN PARK,
"H6C8+QP3, Dr Shyama Prasad Mukherjee Chowk, Block C, East Kidwai Nagar, Kidwai Nagar, New Delhi, Delhi 110023, India",https://maps.google.com/?cid=12131638482004327891,DEL,0.257429696944153,1643.9,6.909311937027231,DEL1,28.571889,77.21680099999999,Kidwai Nagar Park,
"H6CM+998, Block D, Defence Colony, New Delhi, Delhi 110049, India",https://maps.google.com/?cid=5662578044121930511,DEL,0.23303945167767257,1830.1875,7.915445947342535,DEL1,28.570908199999998,77.2334499,Park,
"H69P+4C3, Block M, Lajpat Nagar III, Lajpat Nagar, New Delhi, Delhi 110024, India",https://maps.google.com/?cid=15259556663012678231,DEL,0.03340648429023907,1846.675,8.067794128615622,DEL2,28.5677511,77.2360475,Late Sh.P.R.Chhabra Park,
"76, Mohammadpur Main Rd, Mohammadpur, Rama Krishna Puram, New Delhi, Delhi 110022, India",https://maps.google.com/?cid=14752081450648568018,DEL,0.24206444904960112,1152.96,5.1711393891778465,DEL1,28.564337700000003,77.1882835,"Ambedkar Park, Mohammadpur Village",
"B-4, Pandav Nagar, Block B, Vasant Vihar, New Delhi, Delhi 110057, India",https://maps.google.com/?cid=5654665788215960068,DEL,0.1350195841444488,703.547619047619,3.5956343855975414,DEL1,28.566671799999998,77.16235669999999,B-4,
"D-73, Dron Marg, Block D, Defence Colony, New Delhi, Delhi 110049, India",https://maps.google.com/?cid=6886530963452077233,DEL,0.011168553084722544,1833.1785714285713,7.86434801070788,DEL1,28.567231099999997,77.2326995,Tikona park,
"Block-G,Near Mandir,Khanpur, G67P+7F2, Mehrauli - Badarpur Rd, Tigri Colony, Tigri, New Delhi, Delhi 110061, India",https://maps.google.com/?cid=11149833049051353160,DEL,0.14846322167772694,1993.157894736842,8.876925649112675,DEL0,28.513149900000002,77.2361458,Shiv Mandir Park,
"Sector 8, Rama Krishna Puram, New Delhi, Delhi 110022, India",https://maps.google.com/?cid=10524519759364622438,DEL,0.17548210525981825,807.09375,4.055469602111175,DEL1,28.5716294,77.16968059999999,Local Park Sector 8,
"H77M+W3R, Jamia Hostel Walkway, Joga Bai Extension, Okhla, New Delhi, Delhi 110025, India",https://maps.google.com/?cid=16066480938733285003,DEL,0.07538212360536381,2246.315789473684,10.89526685732868,DEL2,28.5648545,77.28263749999999,Hostel Park Cum Playground,
"110049, Public Schools Rd, South Extension II, Block B, Devli, New Delhi, Delhi 110044, India",https://maps.google.com/?cid=14393394815937085782,DEL,0.09138556031299669,1657.8837209302326,6.912608195235778,DEL1,28.5661331,77.21701689999999,Public Park,
"H69P+4JJ, Block M, Lajpat Nagar III, Lajpat Nagar, New Delhi, Delhi 110024, India",https://maps.google.com/?cid=9647752692412525669,DEL,0.039419502357341415,1845.7857142857142,8.097178445823811,DEL2,28.5678397,77.2365307,Open Gym,
"G65M+VRW, C Block Rd, Block C, Jawahar Park, Sangam Vihar, New Delhi, Delhi 110062, India",https://maps.google.com/?cid=7443955156943296957,DEL,0.07430107214700858,1958.0434782608695,8.892604352749583,DEL0,28.509732399999997,77.2345861,Lal Bahadur Shastri Park,
"D-14, Nangal Dewat, Sector D, Vasant Kunj, New Delhi, Delhi 110070, India",https://maps.google.com/?cid=3934348321568309550,DEL,0.25437765635060416,669.5384615384615,3.5228681374076665,DEL0,28.5270172,77.1398292,Rishra,
"J-36, Block J, Lajpat Nagar II, Lajpat Nagar, New Delhi, Delhi 110024, India",https://maps.google.com/?cid=11074312078626106032,DEL,0.10955576159142918,1868.2571428571428,8.535752182474992,DEL2,28.5688361,77.2437423,Kartar Singh Taneja Park,
"H4CV+38R, Shankar Vihar, New Delhi, Delhi 110010, India",https://maps.google.com/?cid=4197516545579088813,DEL,0.05496216909710774,377.725,2.451213286767346,DEL1,28.570231,77.1432746,Local Park Vikram Vihar 2,
"H695+WG6, Sri Aurobindo Marg, Block A, East Kidwai Nagar, Kidwai Nagar, New Delhi, Delhi 110003, India",https://maps.google.com/?cid=14640451748448047955,DEL,0.11721797873724214,1501.7073170731708,6.414929354463876,DEL1,28.5697825,77.2087521,Sri Aurobindo Marg & AIIMS Crossing Flyover,
"H896+4GW, Ecity Bioscope Rd, Gautam Buddha Park, Sector 95, Noida, Uttar Pradesh 201301, India",https://maps.google.com/?cid=8819111287095218617,DEL,0.14986058612178138,2529.3125,12.635054953391307,DEL2,28.5678724,77.3113144,Rashtriya Dalit Smarak (Ambedkar Park),"Expansive memorial park with a small, stately museum, plus many idols & huge elephant statues."
"J-17, Central Market, Lajpat Nagar II, Lajpat Nagar, New Delhi, Delhi 110024, India",https://maps.google.com/?cid=8121742686732766322,DEL,0.11111637544757388,1866.2325581395348,8.443288529312317,DEL2,28.568896199999998,77.242217,Paras Park,
"G5F5+R96, Delhi Jal Board Rd, Pocket 7, Sector B, Vasant Kunj, New Delhi, Delhi 110067, India",https://maps.google.com/?cid=8424991082755066279,DEL,0.16611190458803793,1021.7887323943662,4.434167470318768,DEL0,28.524533599999998,77.1583755,Cactus Garden,
"A-334, Tigri Colony, Tigri, Sangam Vihar, New Delhi, Delhi 110062, India",https://maps.google.com/?cid=15117632231512889014,DEL,0.07841354903188563,1983.840909090909,8.98489912842961,DEL0,28.511711,77.237349,Sukh shanti park,
"Vasant Kunj, New Delhi, Delhi 110067, India",https://maps.google.com/?cid=1656637577137903732,DEL,0.08597003313317007,1088.3684210526317,4.538337473182531,DEL0,28.5276966,77.1634351,Vasant Kunj B5 and 6 Park,
"2/84, Nishant Nagar, Block D, Sangam Vihar, New Delhi, Delhi 110080, India",https://maps.google.com/?cid=15002716510217338752,DEL,0.07294503804026174,1999.6363636363637,9.438201857609988,DEL0,28.5078326,77.24352309999999,Jaan,
"On Road,Back Side Of Bus Stop,Khanpur, G66Q+XVQ, Mehrauli - Badarpur Rd, Tigri, Dakshinpuri, New Delhi, Delhi 110062, India",https://maps.google.com/?cid=1976531537105630573,DEL,0.15326105986670185,1942.2068965517242,9.094720999635673,DEL0,28.512459999999997,77.239729,Baba Park,
"Lala Lajpat Rai Memorial Park, Nehru Nagar, Lajpat Nagar, New Delhi, Delhi 110024, India",https://maps.google.com/?cid=2283046121431704623,DEL,0.19216095057681076,1934.625,8.838826491234567,DEL2,28.570083999999998,77.2487056,Lala Lajpat Rai Memorial Park,
"H5CF+V26, Major Somnath Marg, Sector 7, Rama Krishna Puram, New Delhi, Delhi 110022, India",https://maps.google.com/?cid=4204683514439228587,DEL,0.11916186524123241,807.09375,4.021235337150447,DEL1,28.5707116,77.1691981,Children park s,
"H682+XGF, Ansari Nagar West, New Delhi, Delhi 110029, India",https://maps.google.com/?cid=16522396309598385424,DEL,0.03660649567267808,1394.7884615384614,5.959601623043787,DEL1,28.567426299999997,77.2013079,Plastic surgery park,
"G5G6+773, Pocket 2, Sector B, Vasant Kunj, New Delhi, Delhi 110070, India",https://maps.google.com/?cid=11585830634285867176,DEL,0.07135009320134643,1047.2933333333333,4.492761315868773,DEL0,28.525635899999997,77.1606825,Airshed Park,
"1, Sector 19B, Nanda Enclave, Amber Hai, Delhi, 110075, India",https://maps.google.com/?cid=13846475301235589318,DEL,0.021630060856223928,1429.64,3.1859897384484954,DEL3,28.575239,77.051551,Nursury,
"F-311/1, Pocket C, Jawahar Park, Khanpur, New Delhi, Delhi 110062, India",https://maps.google.com/?cid=5340335150051698540,DEL,0.14577668747666295,1966.157894736842,8.71923987733314,DEL0,28.509271299999998,77.23113,F-311/1,
"F-139, Pocket C, Jawahar Park, Khanpur, New Delhi, Delhi 110062, India",https://maps.google.com/?cid=15841310235954567447,DEL,0.23063333917066423,1951.0454545454545,8.767272271238328,DEL0,28.507831999999997,77.23117529999999,Modern Kraft,
"Bhikaji Cama Place Metro Station Bhikaji Cama Place Gail, Block A, Netaji Nagar, New Delhi, Delhi 110023, India",https://maps.google.com/?cid=721652393701291918,DEL,0.10001749103938228,1143.4473684210527,5.119652564317639,DEL1,28.5699966,77.1873789,Taarini Singh Entrance Park,
"H6CC+5W9, South Extension I, Block H, New Delhi, Delhi 110049, India",https://maps.google.com/?cid=4781085514026104438,DEL,0.17640486449198536,1782.3142857142857,7.241728320727661,DEL1,28.5704035,77.2223609,Park,
"2, 3, Vikram Vihar, Lajpat Nagar IV, Lajpat Nagar 4, New Delhi, Delhi 110024, India",https://maps.google.com/?cid=5099411409809335780,DEL,0.18991741358936182,1838.735294117647,8.281052710714293,DEL2,28.5639939,77.2395372,SadBoys Park,
"IUAC Internal (Inter University Accelerator Centre), Jawaharlal Nehru University, New Delhi, Delhi 110067, India",https://maps.google.com/?cid=662736631018055891,DEL,0.07409234359939579,1147.409090909091,4.751955811357521,DEL0,28.526736099999997,77.1669847,IUAC Internal (Inter University Accelerator Centre),
"Harijan Basti, Arun Vihar, Sector 37, Noida, Uttar Pradesh 201303, India",https://maps.google.com/?cid=12036307286810765215,DEL,0.07333129458568736,2840.025641025641,14.366236913973932,DEL2,28.563523099999998,77.33981969999999,Dr. B R Ambedkar Park,
"H68W+PXQ, Vinoba Puri, Lajpat Nagar II, Lajpat Nagar, New Delhi, Delhi 110024, India",https://maps.google.com/?cid=6685743058676373922,DEL,0.006403974131558735,1923.5869565217392,8.761588704358394,DEL2,28.5668391,77.2474872,"O block Park, Lajpat Nagar 2",
"Batla House, Okhla, New Delhi, Delhi 110025, India",https://maps.google.com/?cid=7655303812585866228,DEL,0.1881149558620055,2104.964285714286,11.369116436543596,DEL2,28.5690071,77.29043779999999,reserve,
"G67Q+44C, Janta Jivan Camp, Tigri Colony, Tigri, Sangam Vihar, New Delhi, Delhi 110062, India",https://maps.google.com/?cid=17030450957510999747,DEL,0.1496533963929201,1979.2564102564102,8.97612840374101,DEL0,28.5128205,77.23777059999999,"Ambedkar Park, Tigri",
"8th Cross Rd, Block DG, Sarojini Nagar, New Delhi, Delhi 110023, India",https://maps.google.com/?cid=16086015636095766425,DEL,0.15230444317851885,1294.1555555555556,5.67475129538733,DEL1,28.570652199999998,77.1965013,DG Block Park,
"G67G+MGF, Khanpur Colony, Block D, JJ Colony, Khanpur, New Delhi, Delhi 110044, India",https://maps.google.com/?cid=6859655558475401083,DEL,0.08360165134040642,1883.64,8.305206186468508,DEL0,28.514176,77.2262887,Tech Love Park by Khatri,
"Dargha Rd, Mehrauli Village, Mehrauli, New Delhi, Delhi 110030, India",https://maps.google.com/?cid=10260331857179084853,DEL,0.11334222206265121,1427.52,5.718777236152502,DEL0,28.520484999999997,77.181421,Qutub Sahib Park,
"33/B2, Sainik Farms Colony, Sainik Farm, New Delhi, Delhi 110080, India",https://maps.google.com/?cid=340447110640185213,DEL,0.14149394413094807,1911.2307692307693,7.964899432665885,DEL0,28.512006,77.21873699999999,The Laburnum Park,
"H982+XCW, D Block, Sector 39, Noida, Uttar Pradesh 201301, India",https://maps.google.com/?cid=17725609845385530365,DEL,0.18387234807565395,3079.967741935484,15.047431985558307,DEL2,28.567498699999998,77.3510714,D Block Park,
"Nanda Enclave, Sector 19 Dwarka, Sector 19B, Nanda Enclave, Dwarka, Delhi, 110075, India",https://maps.google.com/?cid=4151119659755116355,DEL,0.04829684679280776,1539.7254901960785,3.4284696076966226,DEL3,28.576546699999998,77.0477733,SDMC Park Nanda Enclave,
"31, Africa Ave, Mohammadpur, Rama Krishna Puram, New Delhi, Delhi 110066, India",https://maps.google.com/?cid=9912574845204019672,DEL,0.13530687553854417,1156.9268292682927,5.197907280360789,DEL1,28.566086799999997,77.1887596,Chaudhary Jhandu Singh Park,
"H796+QRH, Block A, Friends Colony East, New Friends Colony, New Delhi, Delhi 110065, India",https://maps.google.com/?cid=6268933163982163427,DEL,0.17209971179976824,1995.9024390243903,9.65182956468739,DEL2,28.569435,77.262125,Anand Park,
"Mehrauli - Badarpur Rd, Butterfly Park, Qila Rai Pithora, Sainik Farm, New Delhi, Delhi 110016, India",https://maps.google.com/?cid=16967393324795501636,DEL,0.13772372159033483,1701.8666666666666,6.596334931263435,DEL0,28.521018899999998,77.1986574,Butterfly Park,
"mcd park 2 mohammad pur village, Mohammadpur, Rama Krishna Puram, New Delhi, Delhi 110066, India",https://maps.google.com/?cid=14657573713758967340,DEL,0.184538740548792,1123.2894736842106,4.988307426340804,DEL1,28.5653524,77.18529620000001,MCD Park,
"293, K S Estate, Westend Marg, opp. D Block, Saidulajab, Paryavaran Complex, Saket, New Delhi, Delhi 110030, India",https://maps.google.com/?cid=3565699382818887902,DEL,0.2294938768457605,1734.0869565217392,6.803540052693369,DEL0,28.5148577,77.1985406,Entrance Saidulajab Samudayik Park,
"G693+3G9, Chandan Colony, Block A, Saiyad ul Ajaib, Sainik Farm, New Delhi, Delhi 110030, India",https://maps.google.com/?cid=8278525482525241953,DEL,0.004874372329880126,1789.1698113207547,6.984569716443161,DEL0,28.5176652,77.2038584,RZ1 DDA Park Saidulajab Saket,
"G5J2+CC2, Pocket 11, Sector B, Vasant Kunj, New Delhi, Delhi 110067, India",https://maps.google.com/?cid=6928451334407700360,DEL,0.12453615444255392,842.8666666666667,3.803501265884706,DEL0,28.5310079,77.1510071,Ghorai 110,
"H2MJ+5VR, Sector 16D Dwarka, Kakrola, Delhi, 110075, India",https://maps.google.com/?cid=18064301573929065476,DEL,0.2193497440046762,1963.607142857143,4.453108282306325,DEL3,28.5829849,77.0321561,DDA Park,
"Nanda Enclave, Sector 19, Nanda Enclave, Dwarka, Delhi, 110075, India",https://maps.google.com/?cid=5190781528990967480,DEL,0.04879075128107343,1595.5111111111112,3.5682168698097665,DEL3,28.5770596,77.0455423,Nanda Enclave Park,
"G5CH+5FM forest, Jatva Basti, Mehrauli, New Delhi, Delhi 110030, India",https://maps.google.com/?cid=14599972539729953185,DEL,0.14965700449306524,1395.7333333333333,5.581396955276877,DEL0,28.520463699999997,77.17866599999999,Mahroli forest area,
"Metro Station, South Extension, New Delhi, Delhi 110049, India",https://maps.google.com/?cid=9112159813574598781,DEL,0.03790850822952691,1741.9803921568628,7.122852482347981,DEL1,28.568172200000003,77.220468,Ratan TATA Udhyan,
"H788+QRW, D Block Ln, Block D, Friends Colony East, New Friends Colony, New Delhi, Delhi 110025, India",https://maps.google.com/?cid=4931864617125904428,DEL,0.031542140608813815,1999.3392857142858,9.950243024721427,DEL2,28.566997999999998,77.2670749,Mother's Park,
"Golf Course Rd, Sector 24 Dwarka, Dwarka, Delhi, 110061, India",https://maps.google.com/?cid=6767406112252771148,DEL,0.2463200879336271,1689.875,4.168631531588337,DEL4,28.5542354,77.0358468,Golf Course Road,
"H69C+M3M, South Extension, Block G, New Delhi, Delhi 110049, India",https://maps.google.com/?cid=12908613241878934729,DEL,0.1012634545035719,1730.3863636363637,7.10676950994764,DEL1,28.569224499999997,77.2201779,Anand Mahindra Udhyan,
"H87R+F6V, Captain Shashi Kant Sharma Marg, Harijan Basti, Arun Vihar, Sector 37, Noida, Uttar Pradesh 201303, India",https://maps.google.com/?cid=15156648346025544332,DEL,0.06000302595208681,2873.675675675676,14.409377562643627,DEL2,28.5637261,77.3405341,Dr. Babasaheb Ambedkar Bhavan,
"C-140, C Block, Sector 40, Noida, Uttar Pradesh 201303, India",https://maps.google.com/?cid=17426997675833012212,DEL,0.11929371028243985,3262.4666666666667,15.335058714452991,DEL2,28.5637582,77.3557901,"Park, sector 40 noida",
"H589+678, Sonia Gandhi Camp, Sector 6, Rama Krishna Puram, New Delhi, Delhi 110022, India",https://maps.google.com/?cid=16936040473961600851,DEL,0.18320923764295569,800.7,3.972247327118559,DEL1,28.565741499999998,77.1685573,H589+678,
"H68P+GP6, Block E, Lajpat Nagar III, Lajpat Nagar, New Delhi, Delhi 110024, India",https://maps.google.com/?cid=7269654900229865415,DEL,0.05466373838039507,1845.7857142857142,8.110455419389433,DEL2,28.566284099999997,77.236757,Arjuna Park,
"G59X+7GJ, Westend Marg, Butterfly Park, Saiyad Ul Ajaib Extension, Sainik Farm, New Delhi, Delhi 110030, India",https://maps.google.com/?cid=2322484251233668297,DEL,0.0191695187344326,1713.9259259259259,6.681640489501882,DEL0,28.518389,77.19859600000001,Parking rtdc,
"N-10, Sailing Club Rd, Batla House, Jamia Nagar, Okhla, New Delhi, Delhi 110025, India",https://maps.google.com/?cid=11327632101928344441,DEL,0.07885512577567867,2119.8636363636365,11.604176771282724,DEL2,28.5671112,77.29433019999999,Okhla Head Park,
"Amber Enclave, H2HW+JHF, Sector 19, Pocket 2, Dwarka, Delhi, 110075, India",https://maps.google.com/?cid=761880070411962412,DEL,0.17923884939880913,1481.032258064516,3.5465889393562926,DEL3,28.5790623,77.0464332,DDA Park Amber Enclave,
"H69V+7J6, Feroze Gandhi Rd, Block J, Lajpat Nagar II, Lajpat Nagar, New Delhi, Delhi 110024, India",https://maps.google.com/?cid=16047264458244406924,DEL,0.0687743615327498,1865.842105263158,8.550780019315798,DEL2,28.568158,77.24400200000001,Lajpat Nagar Park,
"G5G6+8J7, Pocket 2, Sector B, Vasant Kunj, New Delhi, Delhi 110067, India",https://maps.google.com/?cid=15034120334225388237,DEL,0.050812870603160705,1061.375,4.52707698022202,DEL0,28.5257956,77.1615522,Government school plot,
"G4JW+XXG, C1 Vasant Kunj, Sector C, Vasant Kunj, New Delhi, Delhi 110070, India",https://maps.google.com/?cid=16380774252227096207,DEL,0.16421958380469365,775.7118644067797,3.574644015377955,DEL0,28.532440599999997,77.14743779999999,Krishna Park,
"Sector 13, Palika Bhawan, R.K. Puram, Sector 13, Block A, Netaji Nagar, New Delhi, Delhi 110066, India",https://maps.google.com/?cid=4173802888598487891,DEL,0.17659130141095344,1131.861111111111,5.023333288542536,DEL1,28.571296,77.1857058,Netaji Nagar - Park,
"H585+CQR, E-1, Sultan Puri, Block E, Vasant Vihar, New Delhi, Delhi 110057, India",https://maps.google.com/?cid=5403559009495941803,DEL,0.1725165097937661,645.3962264150944,3.4157584220205433,DEL1,28.566119099999998,77.159391,E Block Park,
"G5GC+GP4, Sanjay Van Path, Lakhi Nath Kuti, Mehrauli, New Delhi, Delhi 110016, India",https://maps.google.com/?cid=10439297460388709310,DEL,0.10706672084160677,1251.123076923077,5.0127540514399485,DEL0,28.526255199999998,77.17182199999999,Mayur pahri,
"near Qutub Green Apartments, Ward Number 7, Mehrauli Village, Mehrauli, New Delhi, Delhi 110016, India",https://maps.google.com/?cid=11797084551161984259,DEL,0.2175656723020054,1432.1290322580646,5.7964693393400815,DEL0,28.518694900000003,77.1815811,Rani Jhansi Park,
"25, Anuj Vihar, Shankar Vihar, New Delhi, Delhi 110037, India",https://maps.google.com/?cid=1369812322273151573,DEL,0.227775990808208,371.9032258064516,2.5344601646284857,DEL1,28.5730585,77.144198,Uper Garden CAMS,
"19, Ring Rd, Block 8, Nehru Nagar, Lajpat Nagar, New Delhi, Delhi 110065, India",https://maps.google.com/?cid=2202861570111277672,DEL,0.20733243704472162,1945.3103448275863,9.038254601900546,DEL2,28.5702575,77.2519879,Block 7 Park,
"59/5 Block K Kalkaji, Nehru Nagar, Lajpat Nagar, New Delhi, Delhi 110019, India",https://maps.google.com/?cid=13992881338438159704,DEL,0.245208301698215,1940.142857142857,8.80483798394168,DEL2,28.5709721,77.24811389999999,Jhoola park,
"Shankar Vihar, New Delhi, Delhi 110057, India",https://maps.google.com/?cid=12410282080415427337,DEL,0.07969393707742864,325.36,2.272913315605034,DEL1,28.568074799999998,77.140517,Local Park,
"Block 1, Nehru Nagar, Lajpat Nagar, New Delhi, Delhi 110065, India",https://maps.google.com/?cid=17694101852105736522,DEL,0.20437962532069756,1916.1153846153845,9.088493540988482,DEL2,28.5701893,77.2528183,Block 1 Park,
"H86X+MW5, Dadri Main Rd, A Block, Sector 40, Noida, Uttar Pradesh 201303, India",https://maps.google.com/?cid=924195987974685630,DEL,0.17400594641243955,3061.8611111111113,14.977028707751622,DEL2,28.5616286,77.3498446,Dr Kiran Singh Chowk,
"G65J+3VH, Deoli Rd, D Block, Pocket D, Jawahar Park, Khanpur, New Delhi, Delhi 110080, India",https://maps.google.com/?cid=15665523652444966281,DEL,0.22553263836748733,2034.32,8.828395933240229,DEL0,28.5076918,77.2322272,park,
"B 383, Ashoka Park Rd, Block B, New Friends Colony, New Delhi, Delhi 110065, India",https://maps.google.com/?cid=12793207314495002085,DEL,0.24953163189486052,2127.75,10.416518056383053,DEL2,28.5704049,77.2747049,Ashoka park,
"P-33/1, St Mary Rd, Anuj Vihar, Shankar Vihar, New Delhi, Delhi 110037, India",https://maps.google.com/?cid=3736603163027490111,DEL,0.15456906659125905,361.87179487179486,2.3384594512645127,DEL1,28.5668147,77.1416382,MK Garden Yogender Vihar,
"Mahatma Gandhi Rd, South Extension II, New Delhi, Delhi 110049, India",https://maps.google.com/?cid=2852233428059384325,DEL,0.049834214783777,1741.9803921568628,7.124194882934704,DEL1,28.5683683,77.2204864,Mahatma Gandhi Road,
"G66V+5F4, Foot Over Brg, Block D, Sangam Vihar, New Delhi, Delhi 110044, India",https://maps.google.com/?cid=18365464276007502080,DEL,0.08138578957900139,1980.575,9.372532793641792,DEL0,28.510396999999998,77.2436888,Sangam Vihar DDA Park,
"P86, South Extension II, Block P, New Delhi, Delhi 110049, India",https://maps.google.com/?cid=17346253415112116809,DEL,0.158249960683879,1783.5405405405406,7.234984191558518,DEL1,28.564887799999997,77.22231529999999,Green Park,
"Sector 19 Dwarka, Sector 19B, Dwarka, Delhi, 110075, India",https://maps.google.com/?cid=10845866150028211913,DEL,0.03577313321323435,1595.5111111111112,3.571908769164121,DEL3,28.5757123,77.04518159999999,19B Park,
"H3F2+V99, Sector 19, Nanda Enclave, Dwarka, Delhi, 110075, India",https://maps.google.com/?cid=15228615306689412274,DEL,0.019461412939194386,1445.9019607843138,3.21269468109686,DEL3,28.5746735,77.05098389999999,Woodland adventure park (kids),
"Golf Course Rd, Sector 19, Dwarka, Delhi, 110075, India",https://maps.google.com/?cid=429690616628741553,DEL,0.130239735439036,1644.3846153846155,3.851030769873385,DEL3,28.5793823,77.0413569,Golf Course Road,
"Nehru Nagar, Lajpat Nagar, New Delhi, Delhi 110024, India",https://maps.google.com/?cid=12947037063619574223,DEL,0.1921549723778444,1934.625,8.838814170275194,DEL2,28.5700839,77.24870539999999,Lala Lajpat Rai Memorial Park,
"G5H4+39C, Pocket 8, Sector B, Vasant Kunj, New Delhi, Delhi 110067, India",https://maps.google.com/?cid=5965660784558293365,DEL,0.010295487099318025,956.8103448275862,4.177654310507912,DEL0,28.5276917,77.1558861,G5H4+39C,
"H49J+9JH, Indra Gandhi Rd, Police Colony, Mehram Nagar, New Delhi, Delhi 110010, India",https://maps.google.com/?cid=17694791016674568212,DEL,0.0755382765944151,169.41379310344828,1.7637976498493146,DEL1,28.5683403,77.1320945,हरा स्थान,
"New, G5FR+8VW, Chatri Wala Kuan, Lado Sarai, New Delhi, Delhi 110030, India",https://maps.google.com/?cid=12607459578404477033,DEL,0.19493275363768103,1613.65,6.175228938970158,DEL0,28.523365,77.1922116,Gumbad Park,
"G59W+P8V, Butterfly Park, Qila Rai Pithora, Sainik Farm, New Delhi, Delhi 110030, India",https://maps.google.com/?cid=8367684365702872365,DEL,0.0034828975743273426,1656.7384615384615,6.500602796612045,DEL0,28.5193707,77.195798,Burj Rokista,
"106, Vasant Enclave Rd, West End Colony, Vasant Enclave, Vasant Vihar, New Delhi, Delhi 110057, India",https://maps.google.com/?cid=3042232866876732682,DEL,0.15006889229066192,688.4375,3.5112868434704945,DEL1,28.571407599999997,77.1606979,Vasant Enclave Garden,
"G4GX+8W7, Vasant Kunj, D6, Sector D, Vasant Kunj, New Delhi, Delhi 110070, India",https://maps.google.com/?cid=9281196060939917557,DEL,0.20123694639513343,848.1923076923077,3.9928629537053157,DEL0,28.5257813,77.1497854,Studio Aam @ Labyrinth,
"H69J+RW3, Block C, Defence Colony, New Delhi, Delhi 110024, India",https://maps.google.com/?cid=17602443898088109027,DEL,0.14096896371663145,1827.8,7.84240593874303,DEL1,28.569524599999998,77.2322961,Dabra Park,
"H6CM+998, Block D, Defence Colony, New Delhi, Delhi 110049, India",https://maps.google.com/?cid=5662578044121930511,DEL,0.24951353193523818,1904.0666666666666,7.915445947342535,DEL2,28.570908199999998,77.2334499,Park,
"Guru Nanak Market, National Park, Lajpat Nagar, New Delhi, Delhi 110024, India",https://maps.google.com/?cid=2999528142320541506,DEL,0.24357834752440344,1845.0588235294117,8.189089623673734,DEL2,28.5631432,77.2379969,Park,
"2/7, Deenpur, Sarika Vihar, Najafgarh, New Delhi, Delhi, 110043, India",https://maps.google.com/?cid=9832002046033396531,DEL,0.06152991723389471,2761.5625,6.980840502272077,DEL3,28.5898534,76.9911686,Gaurav Singh Park,
"B4 110029, Front Row, Block L, Mahipalpur Village, Safdarjung Enclave, New Delhi, Delhi 110037, India",https://maps.google.com/?cid=326332206769101901,DEL,0.22174561879999766,1320.9,5.689248737814677,DEL1,28.564478899999997,77.19682879999999,"Front Park, B4 Block",
"Capt. Viijyant, Captain Vijyant Thapar Marg, Sector 38, Noida, Uttar Pradesh 201303, India",https://maps.google.com/?cid=7426314877741489702,DEL,0.09901145225909118,2765.8611111111113,14.135955973191919,DEL2,28.563188600000004,77.33601829999999,Botanic Garden of Indian Republic,Sprawling botanical gardens showcasing the region's wide variety of native flora in lush surrounds.
"H59J+77W, West Block, Rama Krishna Puram, New Delhi, Delhi 110066, India",https://maps.google.com/?cid=5894114668263699114,DEL,0.015485679533767912,1044.3030303030303,4.710818192926106,DEL1,28.568240199999998,77.1807096,Ambedkar park And ambedkar basti,
"H69J+RW3, Block C, Defence Colony, New Delhi, Delhi 110024, India",https://maps.google.com/?cid=17602443898088109027,DEL,0.21931777370736485,1895.7222222222222,7.84240593874303,DEL2,28.569524599999998,77.2322961,Dabra Park,
"G66J+V6C, Khanpur Village, Khanpur, New Delhi, Delhi 110062, India",https://maps.google.com/?cid=12404393024694843811,DEL,0.018819721567279974,1960.8958333333333,8.596174788519907,DEL0,28.5121771,77.2305118,Khanpur ward barat ghar,
"H2HX+JGX, Pocket 1, Dwarka, Delhi, 110075, India",https://maps.google.com/?cid=1869106092561275275,DEL,0.21411839061455104,1559.2333333333333,3.4044692683889606,DEL3,28.5791018,77.0488639,Three Peacocks Park Amberhai( Jhord ) तीन मोर पार्क अम्बरहाँई,
"H4CV+5M9, St Mary Rd, Shankar Vihar, New Delhi, Delhi 110057, India",https://maps.google.com/?cid=1304706670409113011,DEL,0.06699832273882529,385.51162790697674,2.510750549913048,DEL1,28.5704073,77.14423990000002,Park,
"Pocket 7, Sector D, Vasant Kunj, New Delhi, Delhi 110070, India",https://maps.google.com/?cid=4693531074622706101,DEL,0.03946363874708254,769.6349206349206,3.6528567927019333,DEL0,28.529336299999997,77.14590989999999,DDA Park,
"H5C8+G6R, Qutab Garh, Sector 8, Rama Krishna Puram, New Delhi, Delhi 110022, India",https://maps.google.com/?cid=16174764470168539157,DEL,0.15383762020826625,737.3076923076923,3.801281710959102,DEL1,28.5713641,77.165502,Tikona Park,
"H974+V2G, F Block, Sector 40, Noida, Uttar Pradesh 201303, India",https://maps.google.com/?cid=754858180337177683,DEL,0.1084614769523675,3079.1923076923076,15.290673608156212,DEL2,28.564685100000002,77.35507059999999,Sai Vatika Park,
"HXRX+CH5, Deenpur, Shiv Puri II, Najafgarh, Delhi, 110043, India",https://maps.google.com/?cid=7800027266684109849,DEL,0.2342688597240754,2946.714285714286,6.540442158460747,DEL3,28.5910174,76.9989889,"Park, Shyam Vihar, Deenpur, Opposite Sarvodaya Vidhalaya",
"DDA Flats, near SBI Bank, Tigri, Khanpur, New Delhi, Delhi 110062, India",https://maps.google.com/?cid=7237898705150583176,DEL,0.20815800942189258,1931.4375,9.065771017547785,DEL0,28.5071123,77.2362836,DDA Park,
"C-554, Chandra Gupta Vidhi, Block C, Lajpat Nagar, New Delhi, Delhi 110049, India",https://maps.google.com/?cid=13869718652799832712,DEL,0.26489826130433436,1904.0666666666666,7.779088336429596,DEL2,28.567145999999997,77.231295,Haryali,
"H59X+WP8, Raj Nagar, Safdarjung Enclave, New Delhi, Delhi 110029, India",https://maps.google.com/?cid=10606760435756583241,DEL,0.10426891268381544,1358.7631578947369,5.844282937930736,DEL1,28.569794599999998,77.19934119999999,Major Sudeep Singh Circle,
"Anuvrat Marg Opposite Qutub Minar Metro Station, G5CQ+33M, Christian Colony, Mehrauli, New Delhi, Delhi 110030, India",https://maps.google.com/?cid=3211521658759509842,DEL,0.050386124153609435,1552.5,6.048443606392052,DEL0,28.520204099999997,77.187679,Mehrauli Archaeological Park,"200-acre archeological site with some 100 historic monuments, including tombs & Delhi's oldest fort."
"G6C3+JG5, Block E, Saket, New Delhi, Delhi 110017, India",https://maps.google.com/?cid=7631787246484061669,DEL,0.23345278526017177,1779.8823529411766,6.859158460326361,DEL0,28.5215185,77.2038463,DDA park,
"429-430, Sector 29, Noida, Uttar Pradesh 201301, India",https://maps.google.com/?cid=4355381153697728743,DEL,0.22156222697784003,3006.2,14.16955012578205,DEL2,28.5684592,77.33659759999999,Park,
"G66X+PJ8, Mehrauli - Badarpur Rd, Block D, Sangam Vihar, New Delhi, Delhi 110062, India",https://maps.google.com/?cid=9497788334586224589,DEL,0.23248151487999694,2101.133333333333,9.632674663422977,DEL0,28.511784400000003,77.249068,DDA PARK,
"H59Q+42, Bhikaji Cama Place, Rama Krishna Puram, New Delhi, Delhi 110066, India",https://maps.google.com/?cid=10177232888468803615,DEL,0.035424475494328166,1151.5,5.12846149313708,DEL1,28.567759,77.18760499999999,"H59Q+425 New Delhi, Delhi",
"H973+WRP, F Block, Sector 40, Noida, Uttar Pradesh 201303, India",https://maps.google.com/?cid=15987368011588872850,DEL,0.047316456340439426,3089.3703703703704,15.259836725148645,DEL2,28.5648406,77.35456400000001,Sector 40 Park,
"G67M+CXH, Mehrauli - Badarpur Rd, near tigadi Mother Dairy, Dr.Ambedkar Nagar, Khanpur Extension, Khanpur, New Delhi, Delhi 1100 62, India",https://maps.google.com/?cid=8035786549477840177,DEL,0.15894101099552005,2016.2903225806451,8.801312747073736,DEL0,28.5135735,77.23499679999999,Baba Ramdev Park,
"Main Road, Opp. Sabzi Market, G67M+PQ4, Mehrauli - Badarpur Rd, Dr.Ambedkar Nagar, Block G, Sector 5, Dakshinpuri, New Delhi, Delhi 110062, India",https://maps.google.com/?cid=354573271159137813,DEL,0.19272495683888183,2053.3846153846152,8.752214487936413,DEL0,28.5142575,77.2344627,DDA Park,
"H59X+C9W, A-1 Block Rd, Block A 1, Nauroji Nagar, Safdarjung Enclave, New Delhi, Delhi 110029, India",https://maps.google.com/?cid=6042219206755514714,DEL,0.030905466448441863,1347.8958333333333,5.7879761381339385,DEL1,28.5686059,77.1984557,A1 block park,
"H799+2M6, Bharat Nagar, New Friends Colony, New Delhi, Delhi 110065, India",https://maps.google.com/?cid=1531729975637674247,DEL,0.06672354965682134,2078.9423076923076,10.076458105936021,DEL2,28.5675273,77.2691521,Baba harzari marg,
"H88Q+V2X, Sector 29, Noida, Uttar Pradesh 201303, India",https://maps.google.com/?cid=13460968103929451007,DEL,0.14853011226183024,2882.925925925926,14.231402893621087,DEL2,28.567231399999997,77.33762469999999,Shaheed Smarak,
"G4HX+P9G, Masoodpur, Sector B, Vasant Kunj, New Delhi, Delhi 110070, India",https://maps.google.com/?cid=1631995467668742698,DEL,0.00869599550169022,791.2575757575758,3.764950297468066,DEL0,28.5293121,77.1484442,Sewhag,
"D 11, Block E, Saket, New Delhi, Delhi 110017, India",https://maps.google.com/?cid=1029271119366808557,DEL,0.20754070993673213,1786.142857142857,6.899625885626209,DEL0,28.520987599999998,77.2042862,Sekat G-block Park,
"South West Delhi, Sector 19B, Dwarka, Delhi, 110075, India",https://maps.google.com/?cid=4199514191353669451,DEL,0.22471855091940213,1516.04,3.504503173731149,DEL3,28.572392999999998,77.0457423,Sea Show Cghs,
"Zakir Nagar Main Rd, Block A, New Friends Colony, New Delhi, Delhi 110025, India",https://maps.google.com/?cid=14916148474962098902,DEL,0.011211259380451439,2114.8541666666665,10.5904958222008,DEL2,28.566404799999997,77.2776262,Zakir Nagar Park,
"224, Sector 19B, Dwarka, Delhi, 110075, India",https://maps.google.com/?cid=13518494313477884703,DEL,0.2075772396794415,1549.1379310344828,3.4909940658561935,DEL3,28.5726248,77.045998,Bougainvillea Park DDA,
"Gents Hostel 1 to 8 AIIMS, Ansari Nagar East, New Delhi, Delhi 110016, India",https://maps.google.com/?cid=14399127396056819771,DEL,0.0168629172248592,1577.9736842105262,6.594961018133378,DEL1,28.5674967,77.2117779,Aiims Garden,
"H595+95M, Block C, Vasant Vihar, New Delhi, Delhi 110057, India",https://maps.google.com/?cid=1477904546154376523,DEL,0.0321304044211332,618.9152542372881,3.328327578663159,DEL1,28.568465999999997,77.15790679999999,Public park,
"H789+MR7, Lane 3, Block D, Bharat Nagar, New Friends Colony, New Delhi, Delhi 110065, India",https://maps.google.com/?cid=9337702364233346863,DEL,0.014719649859476916,2076.470588235294,10.100037243146991,DEL2,28.566660499999998,77.269544,Bharat Nagar bus stop,
"I-15, Veer Savarkar Marg, Block I, Lajpat Nagar II, Lajpat Nagar, New Delhi, Delhi 110024, India",https://maps.google.com/?cid=5790399466419580102,DEL,0.1546234147820927,1869.4411764705883,8.523363954811721,DEL2,28.569584,77.2435199,I Block Park,
"jamia ncc parade &campimg ground, Jamia Millia Islamia, Jamia Nagar, Okhla, New Delhi, Delhi 110025, India",https://maps.google.com/?cid=12760726561218497273,DEL,0.09985680405116161,2220.266666666667,11.017381637252388,DEL2,28.564401900000004,77.2846435,Jamia NCC Camping and Parade Ground,
"C2/170, JJ Colony, Block C, Sector 4, Madangir, New Delhi, Delhi 110062, India",https://maps.google.com/?cid=9620562797634622921,DEL,0.24771911659886267,1885.3076923076924,8.592177087038177,DEL0,28.515651799999997,77.2322867,Delhi home,
"South Extension II, Masjid Moth Village, New Delhi, Delhi 110049, India",https://maps.google.com/?cid=17907951815913550416,DEL,0.24887732859738107,1687.0666666666666,6.995441842278853,DEL1,28.563502,77.21833070000001,Govt. School Boundary & Ground Area,
"H789+94C, Block D, Friends Colony East, New Friends Colony, New Delhi, Delhi 110065, India",https://maps.google.com/?cid=13304741587611651435,DEL,0.032343359165987955,2010.2545454545455,9.99294208353738,DEL2,28.565927799999997,77.2677774,D.D.A.Park,
"Maharshi Mehi Aashram, antarrashtriya dhyan Sadhna Kendra, phase-1, Goyla Dairy, Qutub Vihar, Delhi, 110071, India",https://maps.google.com/?cid=4114158775270457834,DEL,0.008779607135703096,2127.0882352941176,4.902975577014333,DEL3,28.581011399999998,77.0240092,JANTA PARK,
"Fifty hh, Block B, Sector 13, Rama Krishna Puram, Delhi, New Delhi, Delhi 110021, India",https://maps.google.com/?cid=14492141549645856444,DEL,0.1234891911526955,1105.8245614035088,4.969474410503209,DEL1,28.570439099999998,77.1848753,NATRAJ company,
"H89V+6X9, Arun Vihar, Sector 37, Noida, Uttar Pradesh 201303, India",https://maps.google.com/?cid=3257189732150837214,DEL,0.20728775264367075,3003.909090909091,14.678794511128313,DEL2,28.568027599999997,77.3449935,Ashok Vatika,
"C-517, Chhattarsal Vithi Rd, Block C, Defence Colony, New Delhi, Delhi 110049, India",https://maps.google.com/?cid=7946394417586832268,DEL,0.07313706299419587,1825.4791666666667,7.605508890945707,DEL1,28.5685285,77.2284162,Gurdial Garden,
"H882+48Q, Okhla Bird Sanctury, Sector 95, Noida, Uttar Pradesh 201301, India",https://maps.google.com/?cid=12921290427892961503,DEL,0.019538916723773232,2205.4,12.000147783606696,DEL2,28.5653312,77.30085059999999,Watch Tower 2 Bird Sanctuary,
"Plot A, Sector B, Pocket 5, Community Centre, Abdul Gaffar Khan Marg, Pocket 7, Sector B, Vasant Kunj, New Delhi, Delhi 110070, India",https://maps.google.com/?cid=7145629243274423247,DEL,0.17892258001789665,1004.2666666666667,4.41214983946193,DEL0,28.524440499999997,77.15780250000002,"Avadh Behari Park, Sector-B,Vasant Kunj",
"G57X+VW4, Paryavaran Complex, Sainik Farm, New Delhi, Delhi 110030, India",https://maps.google.com/?cid=14637928161862270680,DEL,0.22668113445444946,1751.448275862069,6.8779644371898065,DEL0,28.5146306,77.1998203,Saidulajab Samudayik Park,
"Maulana Mohammad Ali Jauhar Marg, Jamia Millia Islamia, Ghafoor Nagar, Okhla, New Delhi, Delhi 110025, India",https://maps.google.com/?cid=2918777418844064231,DEL,0.11262181065646723,2132.8125,10.808029519611225,DEL2,28.564276099999997,77.2811912,Maulana Mohammad Ali Jauhar Marg,
"H58Q+4J8, Mohammadpur, Rama Krishna Puram, New Delhi, Delhi 110029, India",https://maps.google.com/?cid=14790220552793963046,DEL,0.18387784317162814,1157.076923076923,5.2082312570873075,DEL1,28.5652826,77.1889195,Aakash Systems Park,
"H5CJ+9C7, West Block, Rama Krishna Puram, New Delhi, Delhi 110022, India",https://maps.google.com/?cid=7921410449993824966,DEL,0.1473251832712792,1046.1290322580646,4.739706557160795,DEL1,28.570916399999998,77.18104989999999,R K Puram Sec 12 Park,
"G736+FG8, Shooting Range Rd, Asola Wild Life Sanctuary, Asola, New Delhi, Delhi 110044, India",https://maps.google.com/?cid=10070093396448185650,DEL,0.09305587647325099,2132.3636363636365,10.540617332787258,DEL0,28.5036554,77.2613338,Asola Hariyali Park,
"mini market, 110065, in front of shop no 1, Sriniwaspuri Extn, Block L, Private Colony, Sri Niwaspuri, New Delhi, Delhi 110065, India",https://maps.google.com/?cid=15445876741500147507,DEL,0.14233975085211506,1954.125,9.476215486755573,DEL2,28.5643212,77.2592426,MODI VATIKA,
"H3H3+327, Sector 19, Pocket 1, Dwarka, Delhi, 110075, India",https://maps.google.com/?cid=3792544398545223427,DEL,0.17777981462058218,1408.1176470588234,3.1638582404136097,DEL3,28.5776544,77.0525342,MTNL Park,
"Nanda Enclave Sector 19 Dwarka, Sector 19B, Nanda Enclave, Dwarka, Delhi, 110075, India",https://maps.google.com/?cid=11773130867955945469,DEL,0.018136716941543705,1539.7254901960785,3.4015801706378332,DEL3,28.5759649,77.04809209999999,Nanda Enclave park opposite MCD School,
"G683+9WX, Block A, Saiyad ul Ajaib, Sainik Farm, New Delhi, Delhi 110030, India",https://maps.google.com/?cid=8991004628542254937,DEL,0.0818497889651418,1812.3589743589744,7.095023956684856,DEL0,28.515986200000004,77.2048746,Shaheed Bhagat Singh Park Extension,
"H49R+PRH, Shankar Vihar, New Delhi, Delhi 110010, India",https://maps.google.com/?cid=13567166665997059236,DEL,0.0017565431674336077,362.35,2.3747107133626795,DEL1,28.5693229,77.1421055,Local Park,
"88-A, Shop No. 3, Gali No. 4, N.F.C., Zakir Nagar Main Rd, Jogabai Extension, Zakir Nagar, Okhla, New Delhi, Delhi 110025, India",https://maps.google.com/?cid=427624293082942013,DEL,0.0596025862630645,2118.942857142857,10.807008457462064,DEL2,28.567114999999998,77.28119339999999,Park One,
"H5CG+P2J, Unnamed Road, Som Vihar, Rama Krishna Puram, New Delhi, Delhi 110022, India",https://maps.google.com/?cid=4953746012305409412,DEL,0.19566270137627367,941.4193548387096,4.3785380185049245,DEL1,28.571845699999997,77.17500319999999,Major Somnath Memorial Park,
"C-175, J J Camp Tigri, Jawahar Park, Khanpur, New Delhi, Delhi 110062, India",https://maps.google.com/?cid=1922250127405890081,DEL,0.09953746005441365,1980.3777777777777,9.003089055809255,DEL0,28.5089637,77.2361837,Chhat Puja Park (Bihari colony),
"H6CH+CV6, Block C, Defence Colony, New Delhi, Delhi 110024, India",https://maps.google.com/?cid=5162428897839826506,DEL,0.22754038284684222,1837.7272727272727,7.6852601399564096,DEL1,28.571033399999997,77.229648,Peepal park,
"H68X+QQV, Vinoba Puri, Lajpat Nagar II, Lajpat Nagar, New Delhi, Delhi 110024, India",https://maps.google.com/?cid=13361122956369704627,DEL,0.005456869050816095,1927.7894736842106,8.879558279147147,DEL2,28.5669896,77.2494308,"Park, Lajpat Nagar 2",
"A-89A, Central Market, near Citi Bank ATM, Block A, Lajpat Nagar II, Lajpat Nagar, New Delhi, Delhi 110024, India",https://maps.google.com/?cid=9199001152128034188,DEL,0.2127477733203556,1813.8064516129032,8.265958222024299,DEL2,28.570637599999998,77.2392411,A Block Park,
"50, Gali Number 1, Saiyad ul Ajaib, Sainik Farm, New Delhi, Delhi 110030, India",https://maps.google.com/?cid=13933956573577787355,DEL,0.05964315869817406,1761.0454545454545,6.850590863508433,DEL0,28.518955000000002,77.202147,Vidhi girls PG,
"Near, Alankar Cinema Rd, Block I, Lajpat Nagar III, Lajpat Nagar, New Delhi, Delhi 110024, India",https://maps.google.com/?cid=16437002951323864075,DEL,0.07742142768868927,1850.6,8.37698302576729,DEL2,28.568365000000004,77.24113439999999,Veer Savarkar Park,
"Indian Garden Park, New Delhi Near Saket Metro Station, On, G6C2+535, Mehrauli - Badarpur Rd, Butterfly Park, Saiyad Ul Ajaib Extension, Sainik Farm, New Delhi, Delhi 110030, India",https://maps.google.com/?cid=3615778084944907559,DEL,0.12039361480476912,1728.6521739130435,6.701902818340966,DEL0,28.5203864,77.20024509999999,Indian Garden Park,
"H3G8+78J, Dwarka Sector 9, Dwarka, New Delhi, Delhi, 110077, India",https://maps.google.com/?cid=5869251327441305137,DEL,0.2463888423668864,996.0454545454545,2.3532301691015625,DEL3,28.5757211,77.0657715,hh,
"H5CP+49J, Shaheed Sudhir Tyagi Marg, Block A, Netaji Nagar, New Delhi, Delhi 110023, India",https://maps.google.com/?cid=3998430440188478478,DEL,0.11835735954157901,1121.4888888888888,5.029783798133617,DEL1,28.5703323,77.1858771,Musical Fountains,
"H896+GGJ, Gautam Buddha Park, Sector 95, Noida, Uttar Pradesh 201301, India",https://maps.google.com/?cid=1057868816852498000,DEL,0.20766101973201795,2529.3125,12.63251515131851,DEL2,28.5688264,77.3112625,Okala bird sanctuary,
"G684+FWM, Anupam Garden 10th Ln, Sainik Farm, New Delhi, Delhi 110062, India",https://maps.google.com/?cid=2584039785163771953,DEL,0.03790772403967334,1821.659090909091,7.215537238472934,DEL0,28.516208499999998,77.2072886,"K. C. Farm, anupam garden",
"H69P+69C, Block M, Lajpat Nagar III, Lajpat Nagar, New Delhi, Delhi 110024, India",https://maps.google.com/?cid=17391597931225242764,DEL,0.05212561806421043,1846.675,8.058230142685343,DEL2,28.568062700000002,77.23588579999999,Children Park,
"H57F+V68, Sector 6, Rama Krishna Puram, New Delhi, Delhi 110022, India",https://maps.google.com/?cid=6001920814600096191,DEL,0.24200378058296698,927.8,4.247702636184298,DEL1,28.5646737,77.173071,Ganpati Park,
"H684+7JW, Block H, Ansari Nagar West, New Delhi, Delhi 110029, India",https://maps.google.com/?cid=18024045735138418477,DEL,0.13206186903680972,1478.3055555555557,6.279824417916979,DEL1,28.5657264,77.206586,Residents Garden,
"H76M+XRG, Jamia Senior Secondary School Rd, Jamia Nagar, Okhla, New Delhi, Delhi 110025, India",https://maps.google.com/?cid=2117093394422286477,DEL,0.2191019795610721,2243.6666666666665,11.017036456391054,DEL2,28.562437499999998,77.28459289999999,Syed Abid Husain Garden,
"R14, South Extension II, Block R, New Delhi, Delhi 110049, India",https://maps.google.com/?cid=13178350580753090179,DEL,0.2593064325876857,1793.8,7.192660473488411,DEL1,28.5632423,77.22157299999999,R-14 R Block Park South Extension II,
"296E, E St, Mohammadpur, Rama Krishna Puram, New Delhi, Delhi 110022, India",https://maps.google.com/?cid=13893138742877089387,DEL,0.22778106431183934,1142.21875,5.1071266229887655,DEL1,28.564596500000004,77.1872364,DDA LAND,
"Main market, Mahatma Gandhi Rd, Nehru Nagar, Lajpat Nagar, New Delhi, Delhi 110065, India",https://maps.google.com/?cid=18195220908440607265,DEL,0.1715907261443117,1921.121951219512,9.128208534239862,DEL2,28.569633,77.253489,Park - Nehru Nagar,
"H76J+W5C, Jamia Millia Islamia, Jamia Nagar, Okhla, New Delhi, Delhi 110025, India",https://maps.google.com/?cid=13161177365866265923,DEL,0.23267819313358692,2206.6666666666665,10.761886978708105,DEL2,28.5623169,77.2803832,Eimier Garth,
"H48V+H94, Shankar Vihar, New Delhi, Delhi 110010, India",https://maps.google.com/?cid=2178928651082106144,DEL,0.17838015210210567,373.0285714285714,2.4480187403201827,DEL1,28.5663807,77.143445,Sankar vihar Md,
"MCD shamshan Ghat, H2JQ+R9H, Sector 24 Dwarka, Dwarka, Delhi, 110075, India",https://maps.google.com/?cid=17612925221522728813,DEL,0.1899831256033153,1566.0,4.106336295055615,DEL3,28.5812558,77.0375494,Offroad cycling park,
"House No B, 64, near Sai Nath Public SchoolNew, Block A, Tigri Extension, Sangam Vihar, New Delhi, Delhi 11006, India",https://maps.google.com/?cid=17105089340979121644,DEL,0.1592436429201681,1930.03125,9.254337433432612,DEL0,28.507180599999998,77.2397968,Terrace Garden,
"Shri Krishan, E-17 GF, Mandir Wali Gali, near Central Market, Block E, Part 2, Lajpat Nagar, New Delhi, Delhi 110017, India",https://maps.google.com/?cid=12038881784169116642,DEL,0.2047570955115769,1869.892857142857,8.410860755539714,DEL2,28.570452699999997,77.2416373,गार्डन,
"adjoining SSI plot no. 1, 5P block, Rangpuri, Faridabad, New Delhi, Delhi 121001, India",https://maps.google.com/?cid=10753080227062704360,DEL,0.15875178288164626,328.09302325581393,2.2806393674269883,DEL0,28.537843499999997,77.1217523,Gandhi Park,
"H68R+QGG, Block I, Lajpat Nagar III, Lajpat Nagar, New Delhi, Delhi 110024, India",https://maps.google.com/?cid=10485267865508691787,DEL,0.008579805294420035,1849.7058823529412,8.387051535282426,DEL2,28.5669434,77.24131480000001,Samiha Singh's Chill Spot,
"Elect Dr RP Center, Temple, AIIMS Campus, Ansari Nagar East, New Delhi, Delhi 110016, India",https://maps.google.com/?cid=7824986848659313863,DEL,0.05985315883698052,1536.7441860465117,6.462219346588475,DEL1,28.5668427,77.20959529999999,Deepmohan Park,
"G5J4+66M, Pocket 9, Sector B, Vasant Kunj, New Delhi, Delhi 110070, India",https://maps.google.com/?cid=15163492987278794879,DEL,0.1581183173705367,952.7636363636364,4.036138497803776,DEL0,28.5305982,77.1555625,B 10 Vasant Kunj Park,
"Najafgarh Kapashera Rd, Deenpur, Gandhi Park, Najafgarh, Delhi, 110043, India",https://maps.google.com/?cid=6832216455385604256,DEL,0.05145598829094364,2762.6,6.625588235680718,DEL3,28.5884294,76.9968023,Gandhi Park,
"Mehrauli - Badarpur Rd, Saket, New Delhi, Delhi 110017, India",https://maps.google.com/?cid=4301929497017286679,DEL,0.17102211299747697,1867.906976744186,7.351225785022656,DEL0,28.518847700000002,77.21139149999999,Mehrauli - Badarpur Road,
"D, Sector 40 Block A Rd, Block D, Sector 40, Noida, Uttar Pradesh 201303, India",https://maps.google.com/?cid=16067387166893589071,DEL,0.291888058804562,3337.625,15.473454227962316,DEL2,28.5649248,77.3580851,Mrigal Park,
"H77Q+4J5, Okhla Village, Okhla, New Delhi, Delhi 110025, India",https://maps.google.com/?cid=2033679934157223570,DEL,0.19295762095001273,2162.0,11.290622273373035,DEL2,28.5627579,77.28911169999999,Community Centre Park,
"G67M+9WW, Khanpur Extension, Sangam Vihar, New Delhi, Delhi 110062, India",https://maps.google.com/?cid=4679170438384900522,DEL,0.1516021682099279,1973.8684210526317,8.793612855752343,DEL0,28.5134893,77.2348134,अग्रसेन Park,
"H68Q+W3F, Unnamed Road, Block E, Lajpat Nagar III, Lajpat Nagar, New Delhi, Delhi 110024, India",https://maps.google.com/?cid=9965678129516656609,DEL,0.008711389779211577,1848.2978723404256,8.166178619598432,DEL2,28.5673088,77.237673,Kharbanda Triangular park,
"H973+G52, Block-B, Sector 40, Noida, Uttar Pradesh 201303, India",https://maps.google.com/?cid=1764934995730009532,DEL,0.040765613579076154,3062.1470588235293,15.15886418233481,DEL2,28.5637532,77.3528863,Block B Park,
"H982+QRQ, F Block, Sector 39, Noida, Uttar Pradesh 201301, India",https://maps.google.com/?cid=13280671366500762397,DEL,0.1526186588465924,3062.1470588235293,15.110315969054186,DEL2,28.566959,77.35210909999999,Block F Park,
"P69, South Extension II, Block P, New Delhi, Delhi 110049, India",https://maps.google.com/?cid=17940265948640791144,DEL,0.10809144947582922,1764.7173913043478,7.223515903478631,DEL1,28.565719599999998,77.2221376,P-Block Peepal Park,
"P-9, Swami Pranavanand Marg, Sriniwaspuri Extn, Block P, Swami Pranavanand Marg, Sriniwaspuri Extn, Block P, Private Colony, Sri Niwaspuri, New Delhi, Delhi 110065, India",https://maps.google.com/?cid=7698702582674681052,DEL,0.18326008402755814,1939.787234042553,9.390133476743628,DEL2,28.563681,77.25780999999999,L Market Park,
"qutub minar and ahinsa sthal, b/w, Butterfly Park, Qila Rai Pithora, Sainik Farm, New Delhi, Delhi 110030, India",https://maps.google.com/?cid=15344556693333811141,DEL,0.1594985584273078,1614.6341463414635,6.311727381312673,DEL0,28.5176582,77.19098009999999,Sitara Greens Garden,
"H68Q+CCW, Block G, Lajpat Nagar III, Lajpat Nagar, New Delhi, Delhi 110024, India",https://maps.google.com/?cid=11068104001850016879,DEL,0.06225259261080943,1858.734693877551,8.220417097163983,DEL2,28.5661195,77.2385685,XYZ park,
"AIIMS HOSTEL, Masjid Moth Rd, South Extension II, Gautam Nagar, New Delhi, Delhi 110049, India",https://maps.google.com/?cid=16418139543557147134,DEL,0.21185362862231977,1671.5416666666667,6.9291997953263635,DEL1,28.564140799999997,77.21725839999999,Baraat Ghar Masjid Moth,
"193A, Basant Gaon, Vasant Vihar, New Delhi, Delhi 110037, India",https://maps.google.com/?cid=16257073302443566283,DEL,0.1061415584029194,620.4137931034483,3.364346802683188,DEL1,28.5707357,77.15833649999999,Gandhi Park,
"D, Sector 40 Block A Rd, Block D, Sector 40, Noida, Uttar Pradesh 201303, India",https://maps.google.com/?cid=12399669678279108154,DEL,0.2543047604599065,3299.3636363636365,15.437987150835006,DEL2,28.5642008,77.3574926,Mritunjay Park,
"Goyla Dairy, H2HC+WHR, Qutub Vihar I, Block A, Qutub Vihar, Delhi, 110071, India",https://maps.google.com/?cid=7514636863468746700,DEL,0.11343933320187204,2204.3333333333335,5.043700521459491,DEL3,28.5798532,77.0213854,My farm,
"H58R+QWV, Block A 2, Nauroji Nagar, Safdarjung Enclave, New Delhi, Delhi 110029, India",https://maps.google.com/?cid=6765859294053234007,DEL,0.07560122333259124,1244.3111111111111,5.41334833077366,DEL1,28.5669911,77.19230979999999,A2 SJE Park,
"H3F2+RQP, Dwarka, New Delhi, Delhi, 110075, India",https://maps.google.com/?cid=1903694040524484129,DEL,0.010702168001508347,1430.142857142857,3.153310727538862,DEL3,28.5745987,77.05196289999999,Garden,
"H58R+423, Block B 1, Safdarjung Enclave, New Delhi, Delhi 110029, India",https://maps.google.com/?cid=5755802766268382699,DEL,0.1830343792507784,1185.9333333333334,5.276182066022011,DEL1,28.5652714,77.1900392,B-1 SJE Park,
"Aruna Asaf Ali Marg, opp. INTER UNIVERSITY ACCELERATOR CENTRE, near Sanjay Van, Lakhi Nath Kuti, Vasant Kunj, New Delhi, Delhi 110067, India",https://maps.google.com/?cid=16205661969608202972,DEL,0.11443187234101679,1220.5744680851064,4.900071061822705,DEL0,28.526773499999997,77.1699821,Neela hauz biodiversity park,
"G5GG+58C, Lakhi Nath Kuti, Mehrauli, New Delhi, Delhi 110016, India",https://maps.google.com/?cid=13383825749244579883,DEL,0.10795119546532761,1303.4655172413793,5.243973091351369,DEL0,28.525426699999997,77.1757579,DDA park,
"RK 13 TRAVELS PARKING, Mehram Nagar West, Mehram Nagar, New Delhi, Delhi 110010, India",https://maps.google.com/?cid=11558625124180941188,DEL,0.22776541305583328,51.46153846153846,1.3548515075920335,DEL1,28.565990499999998,77.1254232,Mehram Nagar Park,
"G6C3+GF5, Block E, Saket, New Delhi, Delhi 110017, India",https://maps.google.com/?cid=14989346992308952456,DEL,0.21616903987142566,1779.9130434782608,6.860663712453828,DEL0,28.5212543,77.2037206,Saket Park,
"G67H+HPR, Khanpur Village, Khanpur, New Delhi, Delhi 110062, India",https://maps.google.com/?cid=9080195358326860936,DEL,0.109911694556177,1892.3947368421052,8.47432472424302,DEL0,28.513978599999998,77.22927,Munincipal Corporation Of Delhi-Park,
"Anuvrat Marg, Seth Sarai, Mehrauli, New Delhi, Delhi 110016, India",https://maps.google.com/?cid=9161219742932875502,DEL,0.08039509007829226,1555.0,6.024052624933736,DEL0,28.522210899999997,77.18859499999999,Rose Garden,
"H779+3V8, Block D, Sarai Jullena, New Friends Colony, New Delhi, Delhi 110025, India",https://maps.google.com/?cid=18400546197709356029,DEL,0.22823439644071702,1944.1538461538462,10.112754981254504,DEL2,28.562652,77.2696929,Shaheed Abdul Hamid Park,
"D Block, Block D, Defence Colony, New Delhi, Delhi 110024, India",https://maps.google.com/?cid=8286017347060677157,DEL,0.13785361720874084,1834.4545454545455,7.881587091049022,DEL1,28.569354399999998,77.2329469,"Nala Wala Park, Defence Colony",
"A-460, Block-Dii, Ansari Nagar East, New Delhi, Delhi 110029, India",https://maps.google.com/?cid=63369497978926942,DEL,0.12932575132284796,1581.0,6.599957286600006,DEL1,28.5656407,77.2118608,Deepmohan Park 1,
"C-554, Chandra Gupta Vidhi, Block C, Lajpat Nagar, New Delhi, Delhi 110049, India",https://maps.google.com/?cid=13869718652799832712,DEL,0.005511430588823985,1834.483870967742,7.779088336429596,DEL1,28.567145999999997,77.231295,Haryali,
"Sujan Mohinder Rd, near Lotus Tower, Block A, Friends Colony East, New Friends Colony, New Delhi, Delhi 110065, India",https://maps.google.com/?cid=6808099736790188308,DEL,0.18949368007652181,1971.0285714285715,10.001179443083439,DEL2,28.563335,77.26787300000001,Regional Park,
"H-85A, 2nd Floor, South Extension I, Block H, New Delhi, Delhi 110049, India",https://maps.google.com/?cid=7278696582604662782,DEL,0.10853819476054753,1752.723404255319,7.170065118794576,DEL1,28.569316099999998,77.2212186,Scram marks the spot,
"Noida Authority Staff Flats, F Block, Sector 40, Noida, Uttar Pradesh 201303, India",https://maps.google.com/?cid=11819097665256606413,DEL,0.06437582601185698,3089.3703703703704,15.278671189881535,DEL2,28.564873499999997,77.3548747,Sector 40 Park,
"78, Block B1, Safdarjung Enclave, Block B 1, Safdarjung Enclave, New Delhi, Delhi 110029, India",https://maps.google.com/?cid=17700314304066953006,DEL,0.1735058553734094,1212.26,5.317763798671131,DEL1,28.565413,77.190727,Khekra,
"Dwarka Rd, Sport View, Delhi Cantonment, New Delhi, Delhi 110010, India",https://maps.google.com/?cid=3112513421433672394,DEL,0.13139572090022167,80.475,1.339659273557647,DEL1,28.567585899999997,77.12514589999999,Dwarka Road,
"H6CR+797, Block E, Lajpat Nagar II, Lajpat Nagar, New Delhi, Delhi 110024, India",https://maps.google.com/?cid=3668734323546510815,DEL,0.21700014500184667,1872.5714285714287,8.36785644745288,DEL2,28.5706694,77.2409201,E Block park,
"H2GX+M42, नन्दा एन्क्लेव, Sector 19, Nanda Enclave, Dwarka, New Delhi, Delhi, 110075, India",https://maps.google.com/?cid=1283824997742121982,DEL,0.053977711171135846,1570.7826086956522,3.4310376030044707,DEL3,28.5766471,77.0477538,नन्दा एन्क्लेव पार्क,
"G697+P9R, Neb Sarai, Block J, Saket, New Delhi, Delhi 110017, India",https://maps.google.com/?cid=464542884182252706,DEL,0.2272532488727714,1864.235294117647,7.443851648129338,DEL0,28.519367000000003,77.2133855,J Block Park,
"House No. K-47-57, Lajpat Nagar II, Block J, Lajpat Nagar II, Lajpat Nagar, New Delhi, Delhi 110024, India",https://maps.google.com/?cid=1467945683500840716,DEL,0.09372215823234628,1867.861111111111,8.511836548352514,DEL2,28.5685839,77.2433531,K - Block Welfare Association,
"H695+3H9, Ansari Nagar East, New Delhi, Delhi 110029, India",https://maps.google.com/?cid=11302642180666770308,DEL,0.0109365411564557,1519.3877551020407,6.424873684080494,DEL1,28.5676645,77.20897269999999,AIIMS FRONT LAWN,
"IUAC Internal (Inter University Accelerator Centre), Pocket 5 and 6, Sector B, Jawaharlal Nehru University, New Delhi, Delhi 110067, India",https://maps.google.com/?cid=1343228512606184876,DEL,0.05482438379995951,1147.409090909091,4.754543246164397,DEL0,28.526449999999997,77.166805,IUAC Internal (Inter University Accelerator Centre),
"G5CH+5FM, Jatva Basti, Mehrauli, New Delhi, Delhi 110030, India",https://maps.google.com/?cid=11155384318508933233,DEL,0.14965700449306524,1395.7333333333333,5.581396955276877,DEL0,28.520463699999997,77.17866599999999,Sarpanch farm,
"G5CX+FX9, Village, Saidulajab, Butterfly Park, Qila Rai Pithora, Sainik Farm, New Delhi, Delhi 110030, India",https://maps.google.com/?cid=229259584205889082,DEL,0.16382960001111382,1718.575,6.661945216273181,DEL0,28.521175,77.19998,SBS Park Extension,
"H4CM+2J, Police Colony, Mehram Nagar, New Delhi, Delhi 110010, India",https://maps.google.com/?cid=4235444898792016167,DEL,0.034543133612025614,181.5873015873016,1.8972033199799643,DEL1,28.5701076,77.13409779999999,तिकोना,
"G5H2+V6G, Masoodpur, Sector B, Vasant Kunj, New Delhi, Delhi 110070, India",https://maps.google.com/?cid=13853330361985743675,DEL,0.04109626298799651,834.5384615384615,3.8432286149876806,DEL0,28.529693599999998,77.1505803,Shahid Bhagat Singh Herbal Park,
"G5J4+PG3, Pocket 9, Sector B, Vasant Kunj, New Delhi, Delhi 110070, India",https://maps.google.com/?cid=1745719346489794642,DEL,0.23653982270898546,961.6904761904761,4.0228238173246655,DEL0,28.5317623,77.1562958,"B9 Park, Vasant Kunj",
"Mehrauli - Badarpur Rd, Tughlakabad, New Delhi, Delhi 110044, India",https://maps.google.com/?cid=13820357221311739133,DEL,0.23198215277003253,2276.6363636363635,10.911781986748956,DEL0,28.5065842,77.26942980000001,Kaya Maya park,
"423, Qutab Garh, Sector 8, Rama Krishna Puram, New Delhi, Delhi 110022, India",https://maps.google.com/?cid=15532837293096618499,DEL,0.23437940150459402,749.85,3.8074693367906183,DEL1,28.5726928,77.16545219999999,Children Park,
"New, G5CX+GJV, Butterfly Park, Qila Rai Pithora, Sainik Farm, New Delhi, Delhi 110030, India",https://maps.google.com/?cid=9012784475866536959,DEL,0.16239290938241355,1706.5238095238096,6.605931250702791,DEL0,28.521352099999998,77.19904149999999,Lado Sarai Park,
"271, Sector 19, Block B, Dwarka, New Delhi, Delhi, 110075, India",https://maps.google.com/?cid=5091184245714856208,DEL,0.12705472957648717,1592.2926829268292,3.4966764699147923,DEL3,28.578052399999997,77.04700009999999,Mini park,
"H2JG+6C7, Qutub Vihar I, Goyla Dairy, Qutub Vihar, Delhi, 110071, India",https://maps.google.com/?cid=13857238032394691265,DEL,0.008382948999029386,2209.032258064516,4.774794391699608,DEL3,28.580541800000002,77.0260558,Atal park,
"10/33A, 2nd Floor,, Yogmaya Mandir Lane Mehrauli, Block A, Paryavaran Complex, Sainik Farm, New Delhi, Delhi 110030, India",https://maps.google.com/?cid=16853995256675694575,DEL,0.03996804921052349,1807.7142857142858,7.05182212797557,DEL0,28.516760599999998,77.20455369999999,Nitish park,
"Pocket 9, Sector B, Vasant Kunj, New Delhi, Delhi 110067, India",https://maps.google.com/?cid=3265734015242918086,DEL,0.1680269062777223,952.7636363636364,4.006520800346231,DEL0,28.5308498,77.1551671,B 10 Park,
"A-23 2, Gali No. 22, Deenpur, Shyam Vihar Phase-1, Najafgarh, New Delhi, Delhi, 110043, India",https://maps.google.com/?cid=893062355198694249,DEL,0.1345368012998408,2727.296296296296,6.398209567121327,DEL3,28.584612699999997,76.99969469999999,VMS AGRO FARM HOUSE,
"Gali Number 2, Qutub Vihar I, Block A, sector 19, Dwarka, New Delhi, Delhi, 110071, India",https://maps.google.com/?cid=2766531461355722511,DEL,0.11905523350467512,2236.896551724138,4.796497285415422,DEL3,28.578840999999997,77.0253163,NEW JAGGI GREEN GARDEN,
"G 59, Block G, Saket, New Delhi, Delhi 110017, India",https://maps.google.com/?cid=2972807920326888733,DEL,0.23856956570706184,1861.9375,7.207053222098451,DEL0,28.5203699,77.20960099999999,Super chor,
"110070, Pocket 5 and 6, Sector B, Vasant Kunj, New Delhi, Delhi 110070, India",https://maps.google.com/?cid=4965402388117194074,DEL,0.023561075205723408,1071.27868852459,4.514259656949818,DEL0,28.526896999999998,77.16225969999999,Community Park,
"Shree ram park, G5FC+GGC Shiv hanuman mandir, Ward No 2, Lakhi Nath Kuti, Mehrauli, New Delhi, Delhi 110016, India",https://maps.google.com/?cid=5055928984038766057,DEL,0.04513372829482498,1251.123076923077,5.080972653457077,DEL0,28.5238101,77.17126689999999,Shree ram park,
"H6C6+F5X, Block A, East Kidwai Nagar, Kidwai Nagar, New Delhi, Delhi 110023, India",https://maps.google.com/?cid=7621950478614058620,DEL,0.20839610327669608,1542.15,6.525164706448303,DEL1,28.5712421,77.2104999,Type 2/3 park,
"a, dda plots, 148, Sector 19, Nanda Enclave, Dwarka, Delhi, 110075, India",https://maps.google.com/?cid=3338070704536481442,DEL,0.019611999061960424,1461.5681818181818,3.3231310957907736,DEL3,28.5750723,77.0492163,pets boarding hostel dwarka,
"490, Vasant Enclave Rd, West End Colony, Vasant Enclave, Vasant Vihar, New Delhi, Delhi 110057, India",https://maps.google.com/?cid=11350526703953322433,DEL,0.17715995559349348,668.5555555555555,3.494906629760254,DEL1,28.5718613,77.1603741,Sita Vatika,
"G5FP+7FF, Seth Sarai, Mehrauli, New Delhi, Delhi 110030, India",https://maps.google.com/?cid=11463810754667608642,DEL,0.1170609099457976,1467.341463414634,5.79284097356601,DEL0,28.5235798,77.18509089999999,G5FP+7FF,
"221, West End Colony, Vasant Enclave, Vasant Vihar, New Delhi, Delhi 110057, India",https://maps.google.com/?cid=17276685701740557154,DEL,0.2262541001504309,670.6363636363636,3.4885985244486015,DEL1,28.5726752,77.1601632,Shri Mohan Rana Park,
"1155, Sector 7, Rama Krishna Puram, New Delhi, Delhi 110022, India",https://maps.google.com/?cid=11354521889237264227,DEL,0.09286670326482624,793.5813953488372,3.931316612882502,DEL1,28.567245399999997,77.1678834,1155,
"South Extension Plaza 2, Guneet Kashyap Marg Rd, South Extension II, Masjid Moth Village, New Delhi, Delhi 110049, India",https://maps.google.com/?cid=10361969086414473742,DEL,0.23924701383320554,1719.8235294117646,7.085436508928075,DEL1,28.5636208,77.2198183,Princess Garden,
"B4/149, B4 Block, Safdarjung Enclave, New Delhi, Delhi 110029, India",https://maps.google.com/?cid=14845940069568087269,DEL,0.22416844993668647,1320.9,5.691588579117473,DEL1,28.5644381,77.1968662,Garden,
"Mehrauli - Badarpur Rd, Butterfly Park, Chatri Wala Kuan, Lado Sarai, New Delhi, Delhi 110016, India",https://maps.google.com/?cid=353815021644485868,DEL,0.18087613408655742,1568.6857142857143,6.072184178064825,DEL0,28.5235232,77.1903694,Mehrauli - Badarpur Road,
"H687+W3X AIIMS Out Patient Department, near Administrative, Ansari Nagar East, New Delhi, Delhi 110029, India",https://maps.google.com/?cid=13703938033256477396,DEL,0.01742877658926689,1592.1025641025642,6.639680881801533,DEL1,28.5674687,77.2125152,Officers Sports Park,
"Ward 7, MAIN Market Mehrauli, Mehrauli Village, Mehrauli, New Delhi, Delhi 110030, India",https://maps.google.com/?cid=1552954598471496225,DEL,0.025277935829326234,1419.7450980392157,5.633786944708263,DEL0,28.5228088,77.1814744,Shri Krishna Garden,
"G5CH+XH7, Mehrauli Village, Mehrauli, New Delhi, Delhi 110030, India",https://maps.google.com/?cid=9110638284635663206,DEL,0.030609335059693522,1376.3157894736842,5.5186857268596885,DEL0,28.5224141,77.17892320000001,Mother dairy ground,
"H88J+P7J, Sector 38, Noida, Uttar Pradesh 201301, India",https://maps.google.com/?cid=17618160802832016578,DEL,0.11435730138213086,2757.8518518518517,13.807066168869738,DEL2,28.5668315,77.3306327,RSS DMRC BOTANICAL GARDEN,
"H67Q+CQ5, Vikram Vihar, Lajpat Nagar IV, Lajpat Nagar, New Delhi, Delhi 110024, India",https://maps.google.com/?cid=16423372173853125388,DEL,0.2189935058200924,1841.08,8.279362471307143,DEL2,28.563517299999997,77.2394966,Bhavna park,
"11, Dr Shyama Prasad Mukherjee Chowk, South Extension I, East Kidwai Nagar, Block A, New Delhi, Delhi 110023, India",https://maps.google.com/?cid=14695770063868711272,DEL,0.16610307371514935,1662.861111111111,6.937151905718586,DEL1,28.5703693,77.2173395,South Extension I Park,
"G5FW+4QF, DDA Park Marg, Kutub Golf Course, Lado Sarai, New Delhi, Delhi 110030, India",https://maps.google.com/?cid=5938856222069432198,DEL,0.22229534235639273,1660.0666666666666,6.4457421175542,DEL0,28.5228125,77.19693749999999,बंदा सिंह बहादुर शाखा पार्क,
"Westend Marg, Saiyad ul Ajaib, Sainik Farm, New Delhi, Delhi 110030, India",https://maps.google.com/?cid=15152155853031794722,DEL,0.22778842136843552,1718.7407407407406,6.7837408821734675,DEL0,28.514954099999997,77.19822510000002,Gate No.3 Garden of Five Senses,
"237, Jangpura, Block B, Nehru Nagar, Lajpat Nagar, New Delhi, Delhi 110014, India",https://maps.google.com/?cid=14901478743027889853,DEL,0.1648396918921202,1900.078947368421,9.11960673430669,DEL2,28.569525,77.25335,SDMC Children Park,
"H2GX+J3X, Sector 19, Nanda Enclave, Dwarka, New Delhi, Delhi, 110075, India",https://maps.google.com/?cid=3296907061095248901,DEL,0.05136322422892543,1570.7826086956522,3.430685053127473,DEL3,28.5766039,77.0477495,Center Park Nanda Enclave,
"H5CC+WF7, Sector 9, Rama Krishna Puram, New Delhi, Delhi 110022, India",https://maps.google.com/?cid=258881561629760029,DEL,0.22619065999342433,844.0,4.144795157077429,DEL1,28.5724348,77.17107349999999,H5CC+WF7,
"B-3, 1, B St, Pocket 4, Block B, Vasant Kunj, New Delhi, Delhi 110070, India",https://maps.google.com/?cid=4518389968708228103,DEL,0.17821875029368056,1117.561403508772,4.7634223185913545,DEL0,28.5231061,77.16408790000001,The Temple Lawn,
"H2HJ+C27, Goyla Dairy, Qutub Vihar, Delhi, 110071, India",https://maps.google.com/?cid=16351007933825319658,DEL,0.07216628413330603,1935.4473684210527,4.5110025217945156,DEL3,28.5785421,77.0300378,Netaji Subhas Chandra Bose Park,
"H69R+PGF, Feroze Gandhi Rd, Central Market, Lajpat Nagar II, Lajpat Nagar, New Delhi, Delhi 110024, India",https://maps.google.com/?cid=16380868469801655925,DEL,0.13510713644272168,1861.6410256410256,8.387295809058934,DEL2,28.5693125,77.2412842,Shakti Park,
"C5/4, St. C2, Block C, Vasant Vihar, New Delhi, Delhi 110057, India",https://maps.google.com/?cid=5956977494872937604,DEL,0.006466861725673312,662.8307692307692,3.4500332411764267,DEL1,28.569058499999997,77.1598836,MCD Park C Block,
"Pocket 10, Sector B, Vasant Kunj, New Delhi, Delhi 110067, India",https://maps.google.com/?cid=7838964275377787434,DEL,0.22322799409364086,896.7727272727273,3.882551554135611,DEL0,28.5320973,77.1536842,Play Park,
"H69W+64V, Veer Savarkar Marg, Block K, Lajpat Nagar II, Lajpat Nagar, New Delhi, Delhi 110024, India",https://maps.google.com/?cid=9612933419945577619,DEL,0.06707390716887515,1895.7045454545455,8.62909482430381,DEL2,28.568100599999998,77.2452935,K Beco Park,
"Aggarwal sweets, E 180, Deoli Rd, near by PARVEEN DEVI MANDIR, J J Camp Tigri, Duggal Colony, Khanpur, New Delhi, Delhi 110062, India",https://maps.google.com/?cid=5428631552270094369,DEL,0.19220342812015054,2010.40625,8.925420605295143,DEL0,28.507847299999998,77.2341155,Jaganath florist decoration and Gardener service,
"H5C5+HH7, West End Colony, Basant Gaon, Vasant Vihar, New Delhi, Delhi 110057, India",https://maps.google.com/?cid=3566740697583708607,DEL,0.14813555098784995,644.2037037037037,3.403424438384627,DEL1,28.571415199999997,77.1589109,Rudra Park,
"H789+PPJ, Lane 3, Block D, Bharat Nagar, New Friends Colony, New Delhi, Delhi 110065, India",https://maps.google.com/?cid=1041448305980044115,DEL,0.016524838774206758,2068.796296296296,10.065868511782154,DEL2,28.566703999999998,77.2689809,H789+PPJ,
"Sector B Rd, Pocket 5 and 6, Sector B, Vasant Kunj, New Delhi, Delhi 110067, India",https://maps.google.com/?cid=10883005354524621779,DEL,0.0541575966984646,1169.3333333333333,4.8630887657729325,DEL0,28.524488899999998,77.1673891,Sector B Road,
"Shop No R-165, Gali No. 6, Barkat Appartment, near, Qadri Masjid Rd, Jogabai Extension, Jamia Nagar, Okhla, New Delhi, Delhi 110025, India",https://maps.google.com/?cid=15556192893220023860,DEL,0.20625704452181126,2243.6666666666665,11.024941497230023,DEL2,28.5694451,77.2847572,Sajid bhai ki shop,
