formattedAddress,googleMapsUri,airport,distanceFromFlightpath,averageAltitude,distanceFromAirport,path_id,latitude,longitude,displayName,editorialSummary
"115C Vassall Rd, London SW9 6NJ, UK",https://maps.google.com/?cid=3260487920848659449,LHR,0.0011814044518055268,4108.050632911392,15.31466916766189,LHR0,51.4783216,-0.106301,Mimi Gardens,
"Richmond TW9, UK",https://maps.google.com/?cid=11776230609880169311,LHR,0.14253379470698138,2110.213333333333,8.076822113877396,LHR0,51.4747835,-0.2743933,Pitches,
"London SE5 0YD, UK",https://maps.google.com/?cid=17146961383482962587,LHR,0.08936453211794709,4215.757142857143,15.614368946160562,LHR0,51.4803752,-0.0994525,Camberwell Triangle Allotments,
"Richmond TW9 3DU, UK",https://maps.google.com/?cid=18109120481797944001,LHR,0.12799765335800975,1918.2162162162163,7.469031637325078,LHR0,51.4810405,-0.2891948,Agius Evolution Garden,
"41, Hannah Barlow House, 4 Portland Grove, London SW8 1JW, UK",https://maps.google.com/?cid=6324727737033827042,LHR,0.12971648558353963,3957.1403508771928,14.681908294216592,LHR0,51.4752686,-0.1208818,Portland Grove Green,
"Marbaix Gardens, Isleworth TW7, UK",https://maps.google.com/?cid=15193826114921438407,LHR,0.08881844207366264,1203.5045045045044,4.94826985480374,LHR0,51.480006499999995,-0.3479557,Thornbury Park,
"13 Wyfold Rd, London SW6 6SE, UK",https://maps.google.com/?cid=15865367405776379506,LHR,0.014272796785783881,2876.88,10.745971972078731,LHR0,51.478535199999996,-0.2125693,Gardening Team London,
"Richmond TW9 3AQ, UK",https://maps.google.com/?cid=6577173919546375338,LHR,0.10514765583026467,1821.8444444444444,7.098767187618978,LHR0,51.4804915,-0.2977545,Rhododendron Dell,
"7 High Park Rd, Richmond TW9 4BL, UK",https://maps.google.com/?cid=5092561238260313134,LHR,0.13737130640112352,2030.6455696202531,7.80719574695934,LHR0,51.474891199999995,-0.2806686,Fred Eastman,
"Claylands Rd, London SW8 1PH, UK",https://maps.google.com/?cid=17388829568465063430,LHR,0.13254604742171577,3982.2380952380954,14.901338975353958,LHR0,51.481367,-0.11610949999999999,Claylands Road,
"Royal Botanic Gardens, Kew, Richmond TW9 3AE, UK",https://maps.google.com/?cid=18271681902052449125,LHR,0.16493598430110532,1841.9464285714287,7.204116805992602,LHR0,51.4818856,-0.2955212,Kew’s Children’s Garden,
"Courland Grove, London SW8 2PX, UK",https://maps.google.com/?cid=13132519174871907084,LHR,0.21731272539070953,3690.0,14.251016287691765,LHR0,51.4732251,-0.13084569999999998,Courland Grove,
"Brent Lea, Brentford TW8 8JQ, UK",https://maps.google.com/?cid=10324534915470855136,LHR,0.10702978503228892,1619.5670103092784,6.359262389571394,LHR0,51.4804988,-0.3150291,Brent Lea Dog Park,
"WWT London Wetland Centre, Queen Elizabeth Walk, London SW13 8AB, UK",https://maps.google.com/?cid=5981474832976453061,LHR,0.034698548324832844,2652.7166666666667,9.982933591233106,LHR0,51.477366499999995,-0.23023179999999996,WWF hide,
"Camberwell, London SE5 7NJ, UK",https://maps.google.com/?cid=1094022062244470022,LHR,0.0001615430865922839,4263.9277108433735,15.978778831334818,LHR0,51.478300499999996,-0.0908595,The Wildlife Triangle,
"15 Eythorne Rd, London SW9 7RH, UK",https://maps.google.com/?cid=1698100046095496343,LHR,0.16058746500846793,4058.177777777778,15.167833501965308,LHR0,51.4745601,-0.1095688,15 Eythorne Rd,
"Hounslow, UK",https://maps.google.com/?cid=388334226427362050,LHR,0.06746409289009847,1119.4881889763778,4.66860141379949,LHR0,51.4794947,-0.35440279999999996,HCC,
"Marvell House, Camberwell Rd, London SE5 7JD, UK",https://maps.google.com/?cid=7784238460479747679,LHR,0.02432249569465625,4236.047619047619,15.88655221976818,LHR0,51.477737499999996,-0.0929768,Broome Way Green,
"40 Harte Rd, Hounslow TW3 4LD, UK",https://maps.google.com/?cid=7003211743132699651,LHR,0.15172656907996235,916.7051282051282,3.854070724784209,LHR0,51.4743491,-0.37259319999999996,Lampton Park,"Green 40-acre park with sports fields, public tennis courts, a playground & bowling green."
"London SW11 4NJ, UK",https://maps.google.com/?cid=18362940952636751425,LHR,0.036406255171892485,3520.3333333333335,13.158110421808118,LHR0,51.4791075,-0.1564981,Battersea Park,"Large parkland with woods, boating lake, peace pagoda, adventure playground and children's zoo."
"2 Brideale Cl, London SE15 6NB, UK",https://maps.google.com/?cid=13939506809524803165,LHR,0.1453256465497086,4384.244897959184,16.778676467301707,LHR0,51.481699799999994,-0.0724599,M & J gardens and fencing,
"London SW10 0UU, UK",https://maps.google.com/?cid=15533738443933152212,LHR,0.0852105177982672,3259.8651685393256,12.124315067696728,LHR0,51.4762676,-0.1803704,Admiral Square,
"265 Southampton Way, London SE5 7EN, UK",https://maps.google.com/?cid=2180953164054353706,LHR,0.09073817423185535,4405.373333333333,16.52122791424431,LHR0,51.4762085,-0.0781635,W. Uden & Sons Family Funeral Directors Camberwell,
"305 Battersea Park Rd, London SW11 4NF, UK",https://maps.google.com/?cid=6158681039884144636,LHR,0.16316027493837598,3543.183673469388,13.244588437446428,LHR0,51.4744709,-0.1542618,Doddington and Rollo Estate Gardens,
"Horton Rd, Stanwell Moor, Staines TW19 6AG, UK",https://maps.google.com/?cid=11584342178845508015,LHR,0.17600156725905897,1613.1237113402062,1.6803724414564756,LHR1,51.463231199999996,-0.49914499999999995,Horton Rd - Heathrow Airport Plane Spotting Area | Cpt Nick Aviation,
"Dukes Meadows, Chiswick, London W4 2SH, UK",https://maps.google.com/?cid=5329125230395385747,LHR,0.1704173493595022,2336.7105263157896,8.91489775043652,LHR0,51.474170699999995,-0.25488079999999996,Masonian Sports Ground,
"135 Camberwell New Rd, London SE5 0AT, UK",https://maps.google.com/?cid=4069972454245395800,LHR,0.026429651820103414,4122.671052631579,15.379111104992418,LHR0,51.4789093,-0.1048344,Dancing in the Shadow of Henry,
"Peckham, London SE15 6DB, UK",https://maps.google.com/?cid=2129633914815887816,LHR,0.022020244117701687,4387.448717948718,16.779904623737956,LHR0,51.477811200000005,-0.0722124,Jowett Street Park,
"Thames City, Nine Elms, London SW8 5GZ, UK",https://maps.google.com/?cid=8075676570703080090,LHR,0.17022921354045542,3881.230769230769,14.385196296332145,LHR0,51.4822329,-0.12819039999999998,Nine Elms Park,
"Prince of Wales Dr, London SW11 4HG, UK",https://maps.google.com/?cid=1566451915577108225,LHR,0.1521776281374797,3437.4920634920636,12.881581240281271,LHR0,51.4747226,-0.162706,Park Mansions,
"Hounslow TW3, UK",https://maps.google.com/?cid=6978500335339333094,LHR,0.1692316295981266,1107.3035714285713,4.5777479674785475,LHR0,51.473991,-0.35571569999999997,Kingsley Avenue Park,
"WWT London Wetland Centre, Queen Elizabeth Walk, London SW13 8AB, UK",https://maps.google.com/?cid=7239605816857002931,LHR,0.11385785614622847,2640.777777777778,9.987100330413512,LHR0,51.480818299999996,-0.2304523,Reservoir lagoon,
"15 Eythorne Rd, London SW9 7RH, UK",https://maps.google.com/?cid=2511446136155722486,LHR,0.14414521432277236,4048.9,15.168953390392714,LHR0,51.4749422,-0.1095529,Myatt's Field Common Park,
"100 Primrose Pl, Isleworth TW7 5BE, UK",https://maps.google.com/?cid=12591350428124940940,LHR,0.16499470848796585,1403.3157894736842,5.612249465224903,LHR0,51.474143399999996,-0.3316634,100 Primrose Pl,
"21 Chester Ct, Lomond Grove, London SE5 7HS, UK",https://maps.google.com/?cid=1686300831528855859,LHR,0.010807210597345155,4241.976744186047,15.872686653661747,LHR0,51.4785536,-0.0933389,Chester Court Green,
"Marbaix Gardens, Isleworth TW7 4FD, UK",https://maps.google.com/?cid=17576471440613490638,LHR,0.08386502593670694,1212.3008849557523,4.986320447750336,LHR0,51.479893499999996,-0.34704029999999997,Marbaix Gardens,
"FJFJ+VG, Hounslow TW3 4JG, UK",https://maps.google.com/?cid=4180792744279159147,LHR,0.15049004874462596,973.2266666666667,4.014639607168122,LHR0,51.4743895,-0.3688584,Green square,
"Lonsdale Rd, London SW13 9QL, UK",https://maps.google.com/?cid=6106396655614142740,LHR,0.0007547541817365073,2413.771186440678,9.177673690599349,LHR0,51.4781233,-0.2490289,Small Profit Dock Gardens,
"London SW11 4NJ, UK",https://maps.google.com/?cid=13839456799394124169,LHR,0.04009614039763003,3494.80198019802,13.09676795921036,LHR0,51.4773292,-0.15781599999999998,Sub Tropical Garden,
"London SE15, UK",https://maps.google.com/?cid=8332297258330583782,LHR,0.13218853804430408,4377.666666666667,16.986646606661264,LHR0,51.4813228,-0.06759699999999999,Leyton Square Recreation Ground,
"London SE5, UK",https://maps.google.com/?cid=15956343959582592227,LHR,0.15337405436070914,4234.6,15.901950361683882,LHR0,51.4747389,-0.092513,Greater London,
"London SW11 4NJ, UK",https://maps.google.com/?cid=4169574833991963897,LHR,0.008969004422848398,3613.0760869565215,13.423215251626278,LHR0,51.4784724,-0.15029109999999998,Rosery Gardens,
"27 Kenchester Cl, London SW8 2TY, UK",https://maps.google.com/?cid=11086429864251774336,LHR,0.01679716565297203,3908.7912087912086,14.551156799053777,LHR0,51.478670699999995,-0.1240733,Rosetta Close Green,
"Wyatt Dr, London SW13 8AB, UK",https://maps.google.com/?cid=1110094038260910312,LHR,0.06651746317402443,2606.5510204081634,9.836435877098104,LHR0,51.476621300000005,-0.23358769999999998,Slate Garden,
"Camberwell, London SE5 7AA, UK",https://maps.google.com/?cid=527705399030286449,LHR,0.14816716423945064,4231.942307692308,15.896087593161944,LHR0,51.4748598,-0.09265229999999999,Camberwell Green,
"6 Parkham St, London SW11 3UA, UK",https://maps.google.com/?cid=9745702324990760296,LHR,0.12163525868751734,3350.3333333333335,12.470653524944284,LHR0,51.4754273,-0.1722823,Burnett Court Green,
"37 Holland Grove, London SW9 6ER, UK",https://maps.google.com/?cid=8306218050037775887,LHR,0.01692468901620454,4048.7710843373493,15.183137278271323,LHR0,51.478685299999995,-0.1093788,Oval Community Park,
"Battersea Park, London SW11 4NJ, UK",https://maps.google.com/?cid=4513420250335037786,LHR,0.13656998512217577,3562.171875,13.293724750324332,LHR0,51.4814363,-0.1535241,Thrive Garden,
"WWT London Wetland Centre, Queen Elizabeth Walk, London SW13 8AB, UK",https://maps.google.com/?cid=13973374644075705097,LHR,0.004360669211473532,2616.196261682243,9.870733978754465,LHR0,51.478066899999995,-0.2328961,Main Lake,
"149 Benhill Rd, London SE5 7LZ, UK",https://maps.google.com/?cid=10727795932685959422,LHR,0.10394173461275727,4311.492063492064,16.17934751757776,LHR0,51.4758929,-0.0860991,Brunswick Park,
"66 Edmund St, London SE5 7NR, UK",https://maps.google.com/?cid=16055462142947986871,LHR,0.06386901834323916,4276.76,16.007059335276942,LHR0,51.479788899999996,-0.09028309999999999,66 Edmund St,
"Suffolk Rd, London SW13 9NR, UK",https://maps.google.com/?cid=11906890483542520851,LHR,0.05436921155862494,2441.4196428571427,9.290241694296741,LHR0,51.4794085,-0.2465316,Suffolk Road Recreation Ground,
"St. Georges Church of England Primary School, Corunna Rd, Nine Elms, London SW8 4JS, UK",https://maps.google.com/?cid=10189135947300223249,LHR,0.06545375770598993,3754.123595505618,13.900381108251242,LHR0,51.47674850000001,-0.1391043,The Happiness Garden,
"Brent Lea, Brentford TW8 8JF, UK",https://maps.google.com/?cid=12382853041480539249,LHR,0.03369672199273008,1629.9243697478992,6.382949566582642,LHR0,51.4772307,-0.3140094,Syon Park,"Vast, landscaped grounds at Syon House, the Duke of Northumberland's centuries-old estate."
"134 Crimsworth Rd, London SW8 4RL, UK",https://maps.google.com/?cid=11657164282809248908,LHR,0.0826811981563707,3826.0421052631577,14.147867675139056,LHR0,51.4763519,-0.13333399999999998,Thorparch Road Pocket Park,
"Coleridge Gardens, London SW10 0RT, UK",https://maps.google.com/?cid=1282021227658047456,LHR,0.1302526947662292,3191.9594594594596,11.904878566276679,LHR0,51.4812692,-0.1858379,Coleridge Square,
"Queens House, 176 S Lambeth Rd, London SW8 1QS, UK",https://maps.google.com/?cid=3735891451522172123,LHR,0.0940553779673556,3891.9583333333335,14.527409271555575,LHR0,51.4804655,-0.12474189999999999,B A L P P A,
"Camberwell, London SE5 7PQ, UK",https://maps.google.com/?cid=7487014267376443514,LHR,0.008322208660229913,4283.115384615385,16.058114818506745,LHR0,51.4784991,-0.08902489999999999,Elmington Estate Wildlife Garden,
"Open Space, Claylands Rd, London SW8 1PH, UK",https://maps.google.com/?cid=14418408315536536636,LHR,0.12880185601911434,3984.6875,14.901501270623543,LHR0,51.48128,-0.11609910000000001,Claylands Green,
"London SW11 4NJ, UK",https://maps.google.com/?cid=10422823228453114579,LHR,0.08812022434912953,3461.494623655914,12.946187528723835,LHR0,51.4762118,-0.16126169999999998,Battersea Park Playground,
"Promenade Approach Rd, Chiswick, London W4, UK",https://maps.google.com/?cid=4056050746684645713,LHR,0.10429531897901081,2345.728260869565,8.964483753391391,LHR0,51.480555599999995,-0.2542489,Dukes Meadows Park,
"88-121 Kew Rd, Richmond TW9 3DU, UK",https://maps.google.com/?cid=18340593015137614542,LHR,0.14839191299480206,1929.1186440677966,7.482022028663619,LHR0,51.48151490000001,-0.2889661,Kew Kitchen Garden,
"Peckham, London SE15 5QH, UK",https://maps.google.com/?cid=5247096513853475422,LHR,0.10362458077104213,4376.538461538462,16.77981690155455,LHR0,51.4759149,-0.072144,Sumner Road Park,
"16 Patmore St, Nine Elms, London SW8 4JJ, UK",https://maps.google.com/?cid=13329136853726930598,LHR,0.1160034471300013,3769.8571428571427,13.96797402635028,LHR0,51.4755748,-0.1374853,Patmore Street Green,
"23 Primrose Pl, Isleworth TW7 5BA, UK",https://maps.google.com/?cid=15141435896163744478,LHR,0.1420234423345239,1398.6233766233765,5.573944124767997,LHR0,51.474675299999994,-0.3325939,Primrose Park,
"London SW11 4NJ, UK",https://maps.google.com/?cid=13615296434923939668,LHR,0.012200628360028873,3500.676470588235,13.112528302364154,LHR0,51.4785446,-0.157521,SW11 4NJ,
"227 Camberwell Rd, London SE5 0HG, UK",https://maps.google.com/?cid=4451184573549876907,LHR,0.04933069004259658,4236.705882352941,15.863491383898712,LHR0,51.477156,-0.0934874,Scena Way Green,
"36 Addington Square, London SE5 7LB, UK",https://maps.google.com/?cid=3009691405585398166,LHR,0.11633772018626186,4267.111111111111,15.925475221207627,LHR0,51.481006699999995,-0.0922586,Addington Square,
"Burlington Ln, Chiswick, London W4 2RP, UK",https://maps.google.com/?cid=3589097234075252276,LHR,0.27457750710584666,2274.0,8.745465700687081,LHR0,51.484502799999994,-0.2599449,Burlington Lane,
"15 Meadow Rd, London SW8 1QD, UK",https://maps.google.com/?cid=6562946383053286572,LHR,0.1756787079846778,3949.46875,14.813047164581565,LHR0,51.482367599999996,-0.1182445,Exercise Corner,
"Rectory Farm, Hounslow TW5 9PB, UK",https://maps.google.com/?cid=15473948277661656102,LHR,0.12688167276280904,575.4021739130435,2.71947142950496,LHR0,51.480730199999996,-0.4008779,Rectory Farm,
"5 Redbridge Gardens, London SE5 7HA, UK",https://maps.google.com/?cid=8328021186642780556,LHR,0.0799382370806154,4393.891891891892,16.398501812228304,LHR0,51.4764561,-0.0810245,Stanswood Gardens Green,
"London SE15 1BJ, UK",https://maps.google.com/?cid=17778741101276405866,LHR,0.051988372647091274,4403.25,17.01954449228745,LHR0,51.478941999999996,-0.06669409999999999,Friary Estate Peace Garden,
"The School House St Georges School, Thessaly Rd, Nine Elms, London SW8 4JS, UK",https://maps.google.com/?cid=13878420745476138764,LHR,0.0500492940565338,3756.0978260869565,13.917557910715749,LHR0,51.4771067,-0.1387218,Friends of Nine Elms Parks,
"London SW11 4NJ, UK",https://maps.google.com/?cid=2290015057486788158,LHR,0.10739990931930427,3492.0602409638554,13.080748635687046,LHR0,51.4807565,-0.1584227,Russel Page Garden,
"Bessant Dr, Richmond TW9 4DU, UK",https://maps.google.com/?cid=5279112337424753791,LHR,0.12983442577692875,2045.6666666666667,7.889358182379923,LHR0,51.4811031,-0.2793934,The National Archives,
"London SE15, UK",https://maps.google.com/?cid=1786312616595466930,LHR,0.20669480012474414,4315.142857142857,16.76350589459273,LHR0,51.4831256,-0.07291829999999999,Surrey Linear Canal Park,
"Quakers Ln, Isleworth TW7, UK",https://maps.google.com/?cid=4576313689057417767,LHR,0.10262856572434705,1497.8510638297873,5.924579780809988,LHR0,51.480375699999996,-0.32517039999999997,Isleworth & Syon School Playing Fields,
"Battersea Park Rd, London SW11 4NJ, UK",https://maps.google.com/?cid=18086312768658343870,LHR,0.03655251929658268,3494.5346534653463,13.093182772992694,LHR0,51.479110299999995,-0.1580085,Tripoint,
"London SW11 4NJ, UK",https://maps.google.com/?cid=15159214397831816321,LHR,0.10261170246934558,3453.6162790697676,12.921819183146358,LHR0,51.480643699999995,-0.1621117,Old English Garden,
"65G Grosvenor Terrace, London SE5 0NN, UK",https://maps.google.com/?cid=7114177206767519835,LHR,0.1153101324879227,4218.920634920635,15.60715971005925,LHR0,51.480978,-0.099661,Grosvenor Park,
"WWT London Wetland Centre, Queen Elizabeth Walk, London SW13 8AB, UK",https://maps.google.com/?cid=10488656001553294799,LHR,0.020425588673145444,2661.4201680672268,10.03236040135891,LHR0,51.4786493,-0.22918400000000003,Peacock Tower,
"Temple Court, Thorncroft St, London SW8 2BD, UK",https://maps.google.com/?cid=3493902243084626753,LHR,0.006830057039479506,3863.967741935484,14.352814437110025,LHR0,51.478118,-0.1286542,Camellia Street Green,
"10 Grantley Rd, Cranford, Hounslow TW4 7QW, UK",https://maps.google.com/?cid=13257522606218990002,LHR,0.1366514374444535,552.5,2.540317500855676,LHR0,51.4745989,-0.40326609999999996,Children's Park,
"London SW13 9SA, UK",https://maps.google.com/?cid=7165503766781718589,LHR,0.04327083967876561,2671.2432432432433,10.049422430675609,LHR0,51.47717,-0.2286712,Sheltered lagoon,
"London SW6 6NP, UK",https://maps.google.com/?cid=12827299659270374656,LHR,0.10285705084528377,2748.7311827956987,10.314119085817014,LHR0,51.4757962,-0.2224312,Stevenage Park,
"3 Bullace Row, London SE5 7JE, UK",https://maps.google.com/?cid=3304320020422171317,LHR,0.07531243056323114,4226.012658227848,15.879165927546834,LHR0,51.4765525,-0.09309909999999999,Bullace Row Green,
"12a Calais St, London SE5 9LP, UK",https://maps.google.com/?cid=12164587400507728365,LHR,0.18878652242769514,3972.25,15.419884100886625,LHR0,51.4739088,-0.1036969,12a Calais St,
"Great West Rd, Isleworth TW7, UK",https://maps.google.com/?cid=3276702522718055360,LHR,0.17386824767330972,1317.418181818182,5.343475345815713,LHR0,51.4820024,-0.33913060000000006,Great West Road,
"New Kings Rd, London SW6 4PT, UK",https://maps.google.com/?cid=13573397056408082341,LHR,0.06085656066621403,3088.081632653061,11.489666182328756,LHR0,51.4768167,-0.195155,Eel Brook Common,"Long-standing, green & open metropolitan common with sports fields, tennis courts & a playground."
"Lots Rd, London SW10 0QJ, UK",https://maps.google.com/?cid=7972094452924212060,LHR,0.06014582000968662,3290.1346153846152,12.212737926402344,LHR0,51.479647,-0.1785303,Cremorne Gardens,"Tranquil gardens commemorating site of 19th-century Pleasure Gardens, with canoeing/kayaking centre."
"Dan Mason Dr, Chiswick, London W4 2SH, UK",https://maps.google.com/?cid=3556837981020909467,LHR,0.05117449608368348,2349.82,8.969277193764727,LHR0,51.4793216,-0.2539971,Dukes Meadows,
"Lonsdale Rd, London SW13 9JS, UK",https://maps.google.com/?cid=17171611409300560893,LHR,0.0018180595830887378,2415.8823529411766,9.1803557528757,LHR0,51.4780987,-0.24896430000000003,Small Profits Dock Gardens,
"40 Addington Square, London SE5 7LB, UK",https://maps.google.com/?cid=7265636440749371782,LHR,0.1481842148284259,4279.208333333333,15.869065132936097,LHR0,51.4817458,-0.09362350000000001,Burgess parkrun,
"London SW13 9WT, UK",https://maps.google.com/?cid=6497589471038581048,LHR,0.03755634376452964,2586.1296296296296,9.7580926000762,LHR0,51.477291099999995,-0.23545649999999999,Observatory,
"1 Allen Way, Slough SL3 9HR, UK",https://maps.google.com/?cid=11705232857004210231,LHR,0.009323936068796859,3585.2105263157896,4.858500732911504,LHR1,51.4822433,-0.5732807999999999,1 Allen Way,
"1 Allen Way, Datchet, Slough SL3 9HR, UK",https://maps.google.com/?cid=9655217742693477363,LHR,0.009024149658274794,3633.8,4.835695545790757,LHR1,51.4816163,-0.5729078,Datchet Village Park,
"Hounslow TW3, UK",https://maps.google.com/?cid=9849000621171355820,LHR,0.22234565215309932,832.7887323943662,3.547665869352204,LHR0,51.4726852,-0.37957959999999996,Hounslow Bowls Club,
"Southern Perimeter Rd, Longford, Stanwell, Hounslow TW6 3PF, UK",https://maps.google.com/?cid=12028788302194799950,LHR,0.15276597822052124,976.6833333333333,1.0365845289542688,LHR1,51.461282100000005,-0.48081490000000005,Heathrow T5 Viewing Point,
"153 Waye Ave, Cranford, Hounslow TW5 9SQ, UK",https://maps.google.com/?cid=16144728874660900413,LHR,0.07443560312649618,428.1192660550459,2.1091500332249615,LHR0,51.4760146,-0.4137106,Waye Avenue Open Space,
"Royal Botanic Gardens, Kew Rd, Richmond TW9 3AB, UK",https://maps.google.com/?cid=10429621577996148420,LHR,0.1656317195639474,1920.7560975609756,7.4617411036185155,LHR0,51.4819144,-0.28950539999999997,Davies Alpine House,
"18 Eythorne Rd, London SW9 7RH, UK",https://maps.google.com/?cid=2966888678711689594,LHR,0.13360090504614028,4060.818181818182,15.173383453662499,LHR0,51.475187299999995,-0.109457,Eythorne Park,
"7 Wyndham Rd, London SE5 0XX, UK",https://maps.google.com/?cid=7351909626540356512,LHR,0.0770441383550737,4220.148648648648,15.620777023086116,LHR0,51.480089,-0.099285,Bethwin Green,
"Room 9, Parsons Green, 27 Parsons Green Ln, Hammersmith & Fulham, London SW6 4HH, UK",https://maps.google.com/?cid=5323090184483578043,LHR,0.08566455744730919,3025.4871794871797,11.253675479607725,LHR0,51.4762323,-0.20060989999999998,Jane Brockbank Gardens,
"3EF, Syon Vista, Richmond TW9 3EG, UK",https://maps.google.com/?cid=12585740237894575391,LHR,0.03594220562001165,1867.5454545454545,7.269785575637883,LHR0,51.4788922,-0.2935427,Rose Garden,
"Wyatt Dr, London SW13 8AB, UK",https://maps.google.com/?cid=995432534165910683,LHR,0.04903332837075326,2627.2450980392155,9.897610691448218,LHR0,51.477030000000006,-0.23219250000000002,Dulverton Hide,
"Huntington House, 11 Palmer Rd, Prince of Wales Dr, Nine Elms, London SW11 4EJ, UK",https://maps.google.com/?cid=6902488585020997016,LHR,0.008935956236158256,3649.431818181818,13.576881849591468,LHR0,51.478057899999996,-0.14669300000000002,Prince of Wales Garden,
"Kelly Avenue, London SE15 5GL, UK",https://maps.google.com/?cid=103284406017075905,LHR,0.10246500511531213,4425.1506849315065,16.622792687629136,LHR0,51.4759387,-0.07579419999999999,Central Venture Park Playground,
"1 Patmos Rd, London SW9 6SQ, UK",https://maps.google.com/?cid=15541922341673909930,LHR,0.05105817207056016,4112.051948051948,15.309276379279826,LHR0,51.4771076,-0.10636849999999999,Dan Leno Gardens,
"30 Surrey Ln, London SW11 3TE, UK",https://maps.google.com/?cid=7436788520501599258,LHR,0.09555387557396602,3380.163043478261,12.572089945062348,LHR0,51.4760348,-0.1699501,Randall Close Green,
"110 West Way, Hounslow TW5 0JG, UK",https://maps.google.com/?cid=3034956287806603862,LHR,0.08848574232520946,869.3826086956522,3.7233466265436377,LHR0,51.479917799999996,-0.376726,Sutton Playing Field,
"Battersea Park, London SW11 4NJ, UK",https://maps.google.com/?cid=1234858964434237526,LHR,0.13302889897949632,3529.304347826087,13.161960796790927,LHR0,51.481352799999996,-0.1565835,Battersea Park Children's Zoo,"Home to smaller animals including otters, capuchins and chinchillas, with an interactive play area."
"27 Pembroke Pl, Isleworth TW7 4HH, UK",https://maps.google.com/?cid=14530051735501758185,LHR,0.16166037511387243,1233.9076923076923,5.039494901346761,LHR0,51.474192599999995,-0.3449894,ThePlantsNanny,
"11 Kingswood Cl, London SW8 2TP, UK",https://maps.google.com/?cid=14793443054543211760,LHR,0.01383925461765372,3908.7912087912086,14.546065900597767,LHR0,51.477958699999995,-0.12415240000000001,Kingswood Close Green,
"WWT London Wetland Centre, Queen Elizabeth Walk, London SW13 8AB, UK",https://maps.google.com/?cid=18328157054583282697,LHR,0.0028423739115472006,2687.915966386555,10.107275210811181,LHR0,51.4781117,-0.227396,Wader scrape hide,
"Charmouth House, Dorset Rd, London SW8 1EU, UK",https://maps.google.com/?cid=987684684065690353,LHR,0.057153804584681944,3935.9240506329115,14.725840621811226,LHR0,51.4796118,-0.12006839999999998,Dorset Green,
"Barnes Ave, London SW13 9AA, UK",https://maps.google.com/?cid=2591589210896806563,LHR,0.168122072047289,2531.925,9.61539331035805,LHR0,51.482064199999996,-0.23926539999999996,Castelnau Recreation Ground,
"48 Uverdale Rd, London SW10 0SR, UK",https://maps.google.com/?cid=2716835044412474662,LHR,0.07060777465550087,3221.762886597938,11.996348420581393,LHR0,51.479885499999995,-0.1835847,Westfield Park,"Neighborhood park featuring blossoming trees & flowers, benches & a children's playground."
"Wyatt Dr, London SW13 8AB, UK",https://maps.google.com/?cid=15943327267407357804,LHR,0.05808874856749264,2615.47,9.860311560801444,LHR0,51.476818099999996,-0.2330455,Wild Walk,
"Camberwell, London SE5 7PH, UK",https://maps.google.com/?cid=11267874695762184531,LHR,0.012225373868037808,4283.662337662337,16.053087096711504,LHR0,51.4785897,-0.0891464,Elmington Woods,
"Lansdowne Gardens, London SW8 2HA, UK",https://maps.google.com/?cid=3236043019124141668,LHR,0.09836630105427122,3887.159420289855,14.449270555200021,LHR0,51.4759927,-0.1263139,Lansdowne Gardens,
"Camberwell, London SE5 7FU, UK",https://maps.google.com/?cid=13927412245658619105,LHR,0.029917678819595634,4298.525641025641,16.11266005324531,LHR0,51.477611599999996,-0.0877148,Benhill Road Nature Garden,
"Cowley Rd, London SW9 6JH, UK",https://maps.google.com/?cid=699942480167432450,LHR,0.1466891083666722,4032.25,15.116734523988043,LHR0,51.474882199999996,-0.1107648,Cowley Road Open Space,
"London SW13 9EX, UK",https://maps.google.com/?cid=14576155078366878597,LHR,0.03153974599722927,2596.3076923076924,9.807269228431588,LHR0,51.4788985,-0.23444500000000001,Headley Hide,
"London SW13, UK",https://maps.google.com/?cid=1406124643214081580,LHR,0.1900196659977608,2678.0,9.917726600512507,LHR0,51.482585,-0.23228400000000002,Wildlife Corridor,
"Albert Square, London SW8 1DA, UK",https://maps.google.com/?cid=6101787613327224877,LHR,0.04537618883839885,3948.653846153846,14.736632591298331,LHR0,51.4772295,-0.11968599999999999,Albert Square Garden,
"FVHW+RM, Otto St, London SE5 0TB, UK",https://maps.google.com/?cid=15869077151998377800,LHR,0.057852604850083256,4157.12,15.466691355721292,LHR0,51.4796408,-0.10284059999999999,Grimsel Path Green,
"112 Thessaly Rd, Nine Elms, London SW8 4HU, UK",https://maps.google.com/?cid=1084776130001996092,LHR,0.051173987167269105,3762.8709677419356,13.934318498722826,LHR0,51.477080799999996,-0.1383309,Edible Avenue SW8 Tea Trail,
"Cronin St, London SE15 6JG, UK",https://maps.google.com/?cid=16023066904076159623,LHR,0.008794114522909636,4410.6,16.586604811207483,LHR0,51.4785231,-0.076739,North Peckham Dog Exercising Area,
"Richmond, UK",https://maps.google.com/?cid=15091440646483999614,LHR,0.029740565510952707,1843.5283018867924,7.181885882642321,LHR0,51.4787438,-0.295573,"Royal Botanic Gardens, Kew",Trees & flowers from around the globe in vast gardens with huge greenhouses & a treetop walkway.
"Fulham, London SW6 6PE, UK",https://maps.google.com/?cid=5623518631846293101,LHR,0.056094836047127325,2742.0588235294117,10.304717867871267,LHR0,51.479489099999995,-0.2229204,Rowberry Mead,
"Barn Elms Sports Centre, Queen Elizabeth Walk, London SW13 9SA, UK",https://maps.google.com/?cid=8187938976848334727,LHR,0.1624030675482254,2635.0363636363636,9.943940321384503,LHR0,51.474397599999996,-0.2309713,Smoky Wood,
"WWT London Wetland Centre, Queen Elizabeth Walk, London SW13 8AB, UK",https://maps.google.com/?cid=7920922830822279689,LHR,0.0713398850943153,2594.450980392157,9.799014129531937,LHR0,51.479822899999995,-0.23472669999999998,Wildside,
"London SW11 4NJ, UK",https://maps.google.com/?cid=16996990254590979535,LHR,0.06964284453010386,3482.183673469388,13.035825980784354,LHR0,51.4798787,-0.1593983,Fountain Toilets,
"Sutton Ln, Hounslow TW3 4LU, UK",https://maps.google.com/?cid=5197537262219381028,LHR,0.18128626517709154,858.28,3.6473945504037215,LHR0,51.4736468,-0.3773348,Wellington Park,
"165 Waye Ave, Hounslow TW5 9SH, UK",https://maps.google.com/?cid=2460698469883324334,LHR,0.08620241059335815,408.6039603960396,2.0237190806861536,LHR0,51.475735799999995,-0.4156472,Huckerby's Meadows,
"marathon pavilion, Queen Elizabeth Walk, London SW13 9SA, UK",https://maps.google.com/?cid=9921925271099027039,LHR,0.1339142002070514,2592.0886075949365,9.771864867159218,LHR0,51.4750527,-0.235,Barn Elms Sports Trust,
"114 Commercial Way, London SE15 5GQ, UK",https://maps.google.com/?cid=9628550699403857759,LHR,0.04009286066616621,4398.459459459459,16.825327702041154,LHR0,51.4773917,-0.07113889999999999,Park,
"Wigram Court, 59 Westbridge Rd, London SW11 3TQ, UK",https://maps.google.com/?cid=5102624910995657996,LHR,0.10641522702235724,3367.259259259259,12.53489328511841,LHR0,51.4757819,-0.1708037,Wigram Court Green,
"Durand Gardens, London SW9 0PS, UK",https://maps.google.com/?cid=6122843207902282280,LHR,0.151041368933232,3965.1666666666665,14.836688866269705,LHR0,51.474776,-0.11727009999999997,Durand Gardens Private Residents’ Garden,
"3 Hawthorn Hatch, Brentford TW8 8NX, UK",https://maps.google.com/?cid=3687878239496720515,LHR,0.12506489492375758,1583.5934065934066,6.207162789074435,LHR0,51.4809104,-0.31865869999999996,Hawthorn Road Park,
"Queen Elizabeth Walk, London SW13 9WT, UK",https://maps.google.com/?cid=4974580385629460971,LHR,0.08710648958180117,2593.070707070707,9.78881122924686,LHR0,51.476141,-0.234665,WWT London Wetland Centre,"Wetland nature reserve with 6 bird spotting hides plus a cafe, daily tours and specialist talks."
"St. Mark's Churchyard, Kennington Park Rd, London SE11 4PP, UK",https://maps.google.com/?cid=18369238754012874236,LHR,0.13821467103040228,4019.7321428571427,15.082263745999752,LHR0,51.481502,-0.11191039999999998,"St Mark's Churchyard, Kennington",
"Royal Botanic Gardens, Richmond TW9 3AE, UK",https://maps.google.com/?cid=10955138427922489937,LHR,0.1503819574178896,1903.6296296296296,7.413566603769366,LHR0,51.4815578,-0.290572,Princess of Wales Conservatory,"Greenhouse displaying items from global ecosystems like orchids, carnivorous plants, cacti & more."
"Calais Gate, Cormont Rd, London SE5 9RQ, UK",https://maps.google.com/?cid=665945448022038770,LHR,0.1519257941261363,4146.723404255319,15.43564923554418,LHR0,51.4747656,-0.10335019999999999,Enclosed Dog Park,
"London SW11 4NJ, UK",https://maps.google.com/?cid=7023268352337532866,LHR,0.10750144948114111,3430.7922077922076,12.841911278192754,LHR0,51.4807565,-0.16398069999999998,Staff Yard & Herds Garden,
"320 Blucher Rd, London SE5 0LH, UK",https://maps.google.com/?cid=258790771303611159,LHR,0.030796965316982436,4240.197530864198,15.78760229470986,LHR0,51.477585499999996,-0.0952702,Castelmead community garden,
"Kew Gardens, Richmond TW9 3AA, UK",https://maps.google.com/?cid=3281167862527720086,LHR,0.1423051531058924,1908.7460317460318,7.444915449535346,LHR0,51.4813717,-0.2898098,The Rock Garden,
"Cheyne Walk, London SW10 0DQ, UK",https://maps.google.com/?cid=3956199286420817809,LHR,0.1592075349787748,3341.8888888888887,12.426150941406103,LHR0,51.4819526,-0.1737679,Battersea Bridge Gardens,
"London SE15 6TB, UK",https://maps.google.com/?cid=2469282406278207474,LHR,0.10415103382310452,4386.452830188679,16.939614635142966,LHR0,51.4807433,-0.0686538,Battle and Caversham Community Garden,
"47 Samuel St, London SE15 6GG, UK",https://maps.google.com/?cid=2380772185187079419,LHR,0.044274384057079036,4409.716049382716,16.54028375397278,LHR0,51.479346299999996,-0.0778585,Calypso Gardens,
"The Mulberry Centre, 12a Calais St, London SE5 9LP, UK",https://maps.google.com/?cid=12024267084148893036,LHR,0.15847376319947926,4151.025,15.466848208258783,LHR0,51.474613899999994,-0.1026213,The Mulberry Centre,
"Kew Rd, Richmond TW9 3AB, UK",https://maps.google.com/?cid=9415352262517214048,LHR,0.15631206400723566,1931.3859649122808,7.502912543628814,LHR0,51.481699899999995,-0.2885081,Bonsai House,
"Albany Rd, London SE5 0AL, UK",https://maps.google.com/?cid=14978882737106598398,LHR,0.19274338549014397,4301.0,16.336861981093275,LHR0,51.482790699999995,-0.0828193,Albany Road,
"117 Travellers Way, Cranford, Hounslow TW4 7QB, UK",https://maps.google.com/?cid=13911900874572387551,LHR,0.09998194922686109,607.0754716981132,2.75133635368118,LHR0,51.475465799999995,-0.3984913,Hounslow Assembly Services,
"13 Grove Park Rd, Chiswick, London W4 3RS, UK",https://maps.google.com/?cid=2434095314352929758,LHR,0.15246852994854285,2128.2537313432836,8.172005955370027,LHR0,51.4816417,-0.27287649999999997,Grove Park,
"London SW8, UK",https://maps.google.com/?cid=7286222121650025456,LHR,0.2066770997670602,3929.8032786885246,14.650904762767347,LHR0,51.4830848,-0.12208129999999999,Greater London,
"149 Benhill Rd, London SE5 7LZ, UK",https://maps.google.com/?cid=12958642927133114197,LHR,0.10394173461275727,4311.492063492064,16.17934751757776,LHR0,51.4758929,-0.0860991,149 Benhill Rd,
"Royal Botanic Gardens, Richmond TW9 3AB, UK",https://maps.google.com/?cid=13874773316846044382,LHR,0.04398261309915528,1874.1272727272728,7.306606373188628,LHR0,51.4790808,-0.2927082,Palm House,
"Sumner Rd, London SE15, UK",https://maps.google.com/?cid=15087608841921471420,LHR,0.09710195526802691,4376.538461538462,16.77116231014883,LHR0,51.4760664,-0.0723499,Sumner Road Park,
"Kimpton Rd &, Mary Datchelor Cl, London SE5 7EA, UK",https://maps.google.com/?cid=8676695763970645115,LHR,0.17139952564065178,4201.090909090909,16.015071903517107,LHR0,51.474322,-0.0898745,Camberwell Secret Garden,
"London SE5 7SR, UK",https://maps.google.com/?cid=17538350445790625628,LHR,0.03482261753740046,4382.265822784811,16.373923724577875,LHR0,51.4775038,-0.08163669999999999,Stanswood Gardens,
"Fulham, London SW6, UK",https://maps.google.com/?cid=14086111842290488179,LHR,0.1994607839663423,3214.0,11.778925966703337,LHR0,51.4736045,-0.18829930000000003,William Parnell Park,
"Ave Rd, Nine Elms, London SW20 0QR, UK",https://maps.google.com/?cid=16396345091163022648,LHR,0.18116651000816894,3686.318181818182,13.878559447939422,LHR0,51.4740593,-0.1395178,Larkhall park Community Garden ( the larks),
"Richmond TW9 3AB, UK",https://maps.google.com/?cid=6265701063656562046,LHR,0.052211079953602725,1845.8446601941748,7.183168910741883,LHR0,51.4768399,-0.2953346,Mediterranean Garden,
"Brentford TW8 8JF, UK",https://maps.google.com/?cid=10500069325407359797,LHR,0.02394170813904029,1649.860655737705,6.449644938544292,LHR0,51.478573,-0.3126226,Syon House Great Conservatory,
"Kelly Avenue, London SE15 5GL, UK",https://maps.google.com/?cid=6053642103621096173,LHR,0.097058274589039,4424.25,16.613416909722858,LHR0,51.476064099999995,-0.0760161,Central Venture Park,
"28 Havil St, London SE5 7RS, UK",https://maps.google.com/?cid=3103040286373786536,LHR,0.03822616529508134,4348.086956521739,16.250745397972626,LHR0,51.47742160000001,-0.08449659999999999,Stacy Path Green,
"London SW13, UK",https://maps.google.com/?cid=18160220163732043364,LHR,0.16896517926907065,2529.309523809524,9.605593675278827,LHR0,51.4820834,-0.23949639999999997,Castelnau Recreation Ground,
"Brentford TW8, UK",https://maps.google.com/?cid=10097326208433656620,LHR,0.09691294698386373,1624.66,6.376025794577687,LHR0,51.4802646,-0.3145976,Brent Lea Recreation Ground,
"Staveley Rd, Chiswick, London W4 3UN, UK",https://maps.google.com/?cid=14186121278195461634,LHR,0.14030094688950256,2256.27397260274,8.654919444622802,LHR0,51.4813796,-0.2615723,Staveley Road,
"Embassy Gardens, 7 New Union Square, Ponton Rd, Nine Elms, London SW11 7DN, UK",https://maps.google.com/?cid=4193668410813035664,LHR,0.14666242123587117,3828.796875,14.141530504168898,LHR0,51.481681099999996,-0.1338143,Nine Elms Park,
"Windsor Rd, Cranford, Hounslow TW4, UK",https://maps.google.com/?cid=2511575937593124193,LHR,0.10229287440660192,558.3577981651376,2.5718925788048876,LHR0,51.4753991,-0.4026805,Windsor Road,
"65 Peckham Rd, London SE5 8UH, UK",https://maps.google.com/?cid=8108194729691109690,LHR,0.16911520721730483,4443.789473684211,16.45142761431914,LHR0,51.474385299999994,-0.07973569999999999,The Fox Garden,
"London SE5, UK",https://maps.google.com/?cid=15421480589821570753,LHR,0.13935955499866642,4435.14,16.438762040199528,LHR0,51.4750764,-0.08004639999999999,Sceaux Gardens,
"Cronin St, London SE15 6JG, UK",https://maps.google.com/?cid=6510760167202735610,LHR,0.008513191546860038,4402.358024691358,16.565100867646894,LHR0,51.478516,-0.07723859999999999,North Peckham Public Open Space,
"12 Bowhill Cl, London SW9 6LG, UK",https://maps.google.com/?cid=1945440830181723200,LHR,0.029322799880466783,4035.5128205128203,15.153614390102167,LHR0,51.478972899999995,-0.1100815,Minerva Close Park,
"Hounslow TW3 4HA, UK",https://maps.google.com/?cid=10877452899267663670,LHR,0.06514531182940776,1020.5213675213676,4.245957262334822,LHR0,51.476388,-0.3637215,The Highlands Open Space,
"Unnamed Road, London SE15 5JT, UK",https://maps.google.com/?cid=11236964313580689106,LHR,0.14797744318979345,4318.589743589743,16.853877927084024,LHR0,51.4748848,-0.0703946,Surrey Canal Walk,
"4 Watford Cl, London SW11 4QT, UK",https://maps.google.com/?cid=11909987663050306824,LHR,0.08507886415580623,3405.0113636363635,12.714531787973613,LHR0,51.476279999999996,-0.16665,Watford Close Park,
